address,categories,city,cuisines,latitude,longitude,name,neighborhoods,postalCode
2058 E 71st Street,"Sandwich Shops,Fast Food Restaurants,Mediterranean Restaurants,Restaurants",Chicago,"Sandwich Shops,Fast Food Restaurants,Mediterranean Restaurants,Restaurants,Mediterranean,Sandwiches,Fast Food",41.76629,-87.57427,24 Hr Gyros Subs,"South Shore,Far South Chicago",60649
2714 W Montrose Ave,"Filipino Restaurants,Take Out Restaurants,Fast Food Restaurants,Family Style Restaurants,Restaurants,Asian Restaurants,Restaurant,Home Cooking Restaurants,Disc Jockeys,Bands & Orchestras,Asian Restaurant,Supermarkets & Super Stores,Barbecue Restaurants,Musicians",Chicago,,41.961293,-87.696666,3 R's Oriental Food,"Ravenswood, North Side, Ravenswood Manor",60618
7036 N Clark Street,"American Restaurants,Bar and Grills,Breakfast Brunch and Lunch Restaurants,,Fast Food Restaurants,Mexican Restaurants,Restaurant Delivery Service,Restaurants,Take Out Restaurants",Chicago,"American Restaurants,Bar and Grills,Breakfast Brunch and Lunch Restaurants,,Fast Food Restaurants,Mexican Restaurants,Restaurant Delivery Service,Restaurants,Take Out Restaurants,Mexican,Latin American,Omelets",42.0101,-87.6743,A T Pancake House Grill,"North Side,Rogers Park",60626
2804 N Western Ave,"Pizza,Restaurant,Meat-retail,Steak and chop restaurants,Fast Food Restaurant,Food Stores,Fast Food Restaurant Northwest Side,Restaurants",Chicago,"Pizza,Steakhouse,Sandwich Shop",41.932911,-87.688217,Al's Beef,Avondale,60618
2534 N Clark St,"Caterers,Fast Food Restaurants,Polynesian,Open 7 Days,Visa Accepted,Asian Restaurants,Cheap Eats,Hawaiian,Barbecue Restaurants,American Express Accepted,Hamburgers,Discover Accepted,Breakfast,Breakfast Brunch and Lunch Restaurants,,Fast Food,Family Style Restaurants,Family-Friendly Dining,Hawaiian Restaurant,Restaurants,Mastercard Accepted,Hawaiian Restaurants,Restaurant,Lunch Spot,Quiet,Local Favorite,Hamburgers and Hot Dogs,Catering,Hidden Find",Chicago,"Caterers,Breakfast,American,Burgers,Fast Food Restaurants,Breakfast Brunch and Lunch Restaurants,,Fast Food,Family Style Restaurants,Brunch and Lunch,Polynesian,Asian,Restaurants,Hawaiian Restaurants,Asian Restaurants,Family Style,Quick Bites,Hot Dogs,Hawaiian,Barbecue Restaurants,Barbecue,Hamburgers and Hot Dogs,Hamburgers",41.9287,-87.6426,Aloha Eats,"Park West,North Side,Lincoln Park",60614
26 E Randolph Street,"American Restaurants,Hot Dog Stands and Restaurants,Fast Food Restaurants,Hamburgers and Hot Dogs,Restaurants",Chicago,"American Restaurants,Hot Dog Stands and Restaurants,American,Burgers,Hot Dogs,Fast Food Restaurants,Fast Food,Hamburgers and Hot Dogs,Restaurants",41.88459,-87.62666,America's Dog,"Central Chicago,The Loop",60601
6355 N Pulaski Rd,"Restaurant,American,Fast Food Restaurant and American Restaurant North Park,Turkish restaurants,Fast Food Restaurant,American Restaurant,Fast Food Restaurant and American Restaurant,Armenian restaurants,Greek restaurants,Greek,Restaurants",Chicago,"American,Greek",41.9971,-87.7289,Backyard Grill,Chicago,60646
100 W Ontario Street,"American Restaurants,Italian,Caterers,Fast Food Restaurants,Restaurants,Italian Restaurants",Chicago,"American Restaurants,Italian,Caterers,Fast Food Restaurants,Restaurants,Italian Restaurants",41.89366,-87.63157,Barnelli's Pasta Bowl,"Central Chicago,Near North Side,River North",60654
229 W Jackson Blvd,"Ice Cream & Frozen Desserts,Restaurant,Fast Food,Dessert Restaurants,Restaurants",Chicago,"Fast Food,Dessert",41.877876,-87.63489,Baskin-Robbins,"Central Chicago, The Loop",60606
31 E Adams St,"Ice Cream Parlors,Ice Cream & Frozen Desserts,Restaurant,Fast Food,Dessert Restaurants,Restaurants,Frozen Yogurt Shops,Ice Cream Shop",Chicago,"Fast Food,Dessert",41.878186,-87.628934,Baskin-Robbins,"Central Chicago, The Loop",60603
4302 S Ashland Ave,"Ice Cream Parlors,Ice Cream & Frozen Desserts,Restaurant,Ice Cream Shop Back of the Yards,Ice Cream & Frozen Yogurt Shops,Fast Food,Yogurt Retail,Dessert Restaurants,Restaurants,Frozen Yogurt Shops",Chicago,"Fast Food,Dessert",41.815757,-87.665399,Baskin-Robbins,"Back of the Yards, Southwest Side",60609
3977 W Columbus Ave,"Restaurant,Ice Cream and Frozen Desserts,Ice Cream & Frozen Yogurt Shops,Ice Cream Shop Ashburn,Fast Food,Yogurt Retail,Dessert Restaurants,Restaurants,Ice Cream Shop",Chicago,"Ice Cream,Ice Cream and Frozen Desserts,Fast Food,Dessert Restaurants,Dessert",41.735914,-87.720747,Baskin-Robbins,"Ashburn,Parkview",60652
600 S Wabash Ave,"Ice Cream & Frozen Desserts,Restaurant,Ice Cream & Frozen Yogurt Shops,Fast Food,Ice Cream Shop South Loop,Dessert Restaurants,Restaurants,Ice Cream Shop",Chicago,"Fast Food,Dessert",41.87427,-87.626305,Baskin-Robbins,"Central Chicago, South Loop",60605
1825 N Clark St,"Ice Cream & Frozen Desserts,Restaurant,Ice cream parlors,Fast Food,Dessert Restaurants,Yogurt,Ice cream and frozen desserts-retail,Restaurants,Ice Cream Shop",Chicago,"Dessert , Fast Food , Frozen Yogurt , Ice Cream , Vegetarian , Specialties,Fast Food,Dessert",41.914598,-87.633825,Baskin-Robbins,"Lincoln Park, North Side,North Side, Lincoln Park",60614
222 Merchandise Mart Plz,"Ice Cream & Frozen Desserts,Restaurant,Fast Food,Dessert Restaurants,Restaurants",Chicago,"Fast Food,Dessert",41.88852,-87.63548,Baskin-Robbins,"Central Chicago, Near North Side, River North",60654
29 N Wacker Dr,"American Restaurants,Restaurant,Caterers,Vegan Restaurants,Health Food Restaurants,Fast Food,Vegetarian Restaurants,Restaurants,Healthy",Chicago,"American Restaurants,Caterers,Vegan Restaurants,American,Vegetarian,Fast food,Health Food Restaurants,Fast Food,Vegetarian Restaurants,Restaurants,Healthy,Vegan",41.88279,-87.63651,Be Leaf,"The Loop,Central Chicago,The Loop, Central Chicago",60606
5749 S Harlem Avenue,"Pizza,Caterers,American,Fast Food Restaurants,Breakfast Brunch and Lunch Restaurants,,Family Style Restaurants,Hamburgers and Hot Dogs,Restaurants",Chicago,"Caterers,Breakfast,American,Burgers,Fast Food Restaurants,Breakfast Brunch and Lunch Restaurants,,Fast Food,Family Style Restaurants,Brunch and Lunch,Restaurants,Pizza,Family Style,Hot Dogs,Hamburgers and Hot Dogs",41.78697,-87.80119,Beefy's,"Southwest Side,Garfield Ridge",60638
5133 S Cicero Avenue,"Pizza,American Restaurants,Barbecue Restaurants,Caterers,Chicken Restaurants,Continental Restaurants,Delicatessens,Dessert Restaurants,Family Style Restaurants,Fast Food Restaurants,Hamburgers and Hot Dogs,Italian Restaurants,Latin American Restaurants,Mexican Restaurants,Party Planning,Restaurant Menus,Restaurants,Seafood Restaurants,Vegetarian Restaurants",Chicago,"Pizza,American Restaurants,Barbecue Restaurants,Caterers,Chicken Restaurants,Continental Restaurants,Delicatessens,Dessert Restaurants,Family Style Restaurants,Fast Food Restaurants,Hamburgers and Hot Dogs,Italian Restaurants,Latin American Restaurants,Mexican Restaurants,Party Planning,Restaurant Menus,Restaurants,Seafood Restaurants,Vegetarian Restaurants,Deli,Burgers,Chicken,Barbecue,American,Mexican,Latin American,Healthy,European,Vegetarian,Continental,Family Style,Hot Dogs,Fast Food,Italian,Dessert,Seafood",41.79974,-87.74275,Beggars Pizza,"Southwest Side,Archer Heights",60632
860 N Orleans St,"Fish Chips Shop,American Restaurants,Restaurant,Seafood Restaurants,Fast Food Restaurant,Fast Food Restaurants,Burger Restaurants,Hamburgers and Hot Dogs,Restaurants,Fish & Chips Restaurants",Chicago,"American Restaurants,American,Quick Bites,Burgers,Hot Dogs,Fast Food Restaurants,Fast Food,Diner,Hamburgers and Hot Dogs",41.898443,-87.637418,BIG & little's Restaurant,"Central Chicago,Near North Side",60610
7859 S State Street,"Greek Restaurants,American Restaurants,Fast Food Restaurants,Hamburgers and Hot Dogs,Mediterranean Restaurants,Restaurants",Chicago,"Greek Restaurants,American Restaurants,Fast Food Restaurants,Hamburgers and Hot Dogs,Mediterranean Restaurants,Restaurants,Burgers,Mediterranean,Greek,American,Hot Dogs,Fast Food,European,Continental",41.75122,-87.62447,Big Mike's Gyros,"South Side,Chatham",60619
7855 S Cottage Grove Avenue,"Greek Restaurants,Fast Food Restaurants,Mediterranean Restaurants,Restaurants",Chicago,"Greek Restaurants,Fast Food Restaurants,Mediterranean Restaurants,Restaurants,Mediterranean,Greek,Fast Food,European,Continental",41.75149,-87.60482,Billy's Gyros,"Far South Chicago,Grand Crossing",60619
6724 S Pulaski Road,"Mexican Restaurants,American Restaurants,Caterers,Fast Food Restaurants,Latin American Restaurants,Restaurants",Chicago,"Mexican Restaurants,American Restaurants,Caterers,Fast Food Restaurants,Latin American Restaurants,Restaurants,Mexican,American,Fast Food,Latin American",41.77062,-87.72292,Birrieria De La Torre,"Southwest Side,West Lawn",60629
122 N Wells St,"Natural food restaurants,Indian Restaurant,Delicatessens,Chicago,Indian restaurants,Fast Food,Contemporary,Restaurants,Juice bars,Restaurant,Vegetarian restaurants,Indian,Health food restaurants,Indian Restaurants",Chicago,"Fast Food,Indian,Contemporary,Vegetarian Friendly,Vegan Options,Indian, Sandwiches",41.884088,-87.633834,Bombay Wraps,loop,60606
330 E Ohio Street,"Indian Restaurants,Caterers,Fast Food Restaurants,Restaurants",Chicago,"Caterers,Indian,Fast Food Restaurants,Indian Restaurants,Restaurants",41.8929,-87.61893,Bombay Wraps,"Near North Side,Central Chicago,Streeterville",60611
122 N Wells Street,"Indian Restaurants,Breakfast Brunch and Lunch Restaurants,,Fast Food Restaurants,Fine Dining Restaurants,Health Food Restaurants,Restaurants,Vegan Restaurants,Vegetarian Restaurants",Chicago,"Indian Restaurants,Breakfast Brunch and Lunch Restaurants,,Fast Food Restaurants,Fine Dining Restaurants,Health Food Restaurants,Restaurants,Vegan Restaurants,Vegetarian Restaurants,Fine Dining,Indian,Fast Food,Breakfast,Brunch and Lunch,Healthy,Vegetarian,Vegan",41.88387,-87.63397,Bombay Wraps,"Central Chicago,The Loop",60606
5777 N Milwaukee Ave,"Restaurant,Caterers,Greek Restaurant,Greek Restaurants,Turkish restaurants,Mediterranean Restaurants,Fast Food,Fast Food Restaurants,Armenian restaurants,Greek restaurants,Greek,Restaurants",Chicago,"Mediterranean,Caterers,Greek Restaurants,Mediterranean Restaurants,Continental,Fast Food,Fast Food Restaurants,European,Greek,Restaurants",41.9865,-87.7776,Brandy's Gyros,"Gladstone Park,Northwest Side,Jefferson Park,Gladstone Park, Northwest Side, Jefferson Park",60646
6262 N Harlem Ave,"Caterers,Greek Restaurants,American restaurants,Hamburger restaurants,Fast Food Restaurants,Hamburgers & Hot Dogs,Italian restaurants,Barbecue,Greek restaurants,Chicken restaurants,Carry-out food,Hot dog restaurants,Seafood restaurants,Tex-mex restaurants,Southwestern restaurants,Mexican restaurants,Take Out Restaurants,Restaurants,Barbecued poultry,Turkish restaurants,Mediterranean Restaurants,Armenian restaurants,Spare rib restaurants,Catering,Mediterranean restaurants",Chicago,"American Cuisine,Mediterranean Cuisine,Bar  Grille Cuisine,Greek Restaurants,Heart Healthy Cuisine,Greek Cuisine,Seafood Cuisine,Steaks and Chops Cuisine,Mexican Cuisine,Italian Cuisine,Sandwiches,Greek,Vegetarian Cuisine",41.995102,-87.80683,Brandys Gyros,"Norwood Park West, Northwest Side, Norwood Park",60631
4725 W Belmont Ave,"Natural food restaurants,Hot dog restaurants,Tex-mex restaurants,Southwestern restaurants,American restaurants,Hamburger restaurants,Mexican restaurants,Restaurants,Juice bars,Pizza,Restaurant,Vegetarian restaurants,Restaurants-breakfast and diners,Fast Food Restaurant,Italian restaurants,Health food restaurants,Mediterranean restaurants",Chicago,Bakeries,41.938772,-87.74543,Bread Basket,"Belmont Gardens, Kelvin Park, Northwest Side",60641
1711 E 87th Street,"Fast Food Restaurants,Restaurants",Chicago,"Fast Food Restaurants,Restaurants,Fast Food",41.73671,-87.58217,Brother Tim's Vegetarian Fast Food,"Calumet Heights,Far South Chicago,Stony Island Park",60617
723 W Armitage Ave,"Hot dog restaurants,Seafood restaurants,Meat-retail,Steak and chop restaurants,American restaurants,Hamburger restaurants,Burger Restaurants,Restaurants,Restaurant,Steak Restaurants,Fast Food Restaurant,Meats Retail,Barbecue,Spare rib restaurants",Chicago,Steak Houses,41.918079,-87.646903,Brothers Beef,"North Side, Lincoln Park",60614
7859 S State Street,"Chicken Restaurants,Caterers,Family Style Restaurants,Fast Food Restaurants,Restaurants",Chicago,"Chicken Restaurants,Caterers,Family Style Restaurants,Fast Food Restaurants,Restaurants,Chicken,Family Style,Fast Food",41.75122,-87.62447,Brown's Chicken,"South Side,Chatham",60619
4739 N Damen Avenue,"Fast Food Restaurants,Restaurants",Chicago,"Fast Food Restaurants,Restaurants,Fast Food",41.96809,-87.67904,Budacki's Drive In,"North Side,Ravenswood",60625
3167 N Milwaukee Ave,"Burger Joint,Restaurant,Fast Food Restaurant,Restaurants",Chicago,Restaurants,41.93863,-87.72252,Burger King,"Logan Square, Northwest Side",60618
S Kedzie Avenue,"Fast Food Restaurants,Hamburgers and Hot Dogs,Restaurants",Chicago,"Fast Food Restaurants,Hamburgers and Hot Dogs,Restaurants,Fast Food",41.69271,-87.70121,Burger King,"Far South Chicago,Mount Greenwood",60655
1701 W 95th St,"Carry-out food,Burger Joint,Restaurant,Hot dog restaurants,Fast Food Restaurant,American restaurants,Hamburger restaurants,Karaoke,Fast food restaurants,Restaurants",Chicago,"American,Fast Food Restaurants",41.721118,-87.664901,Burger King,"Far South Chicago, Beverly",60643
3220 W Columbus Ave,"Restaurant,Carry-out food,Hot dog restaurants,Fast Food Restaurant,American restaurants,Hamburger restaurants,Fast Food,Karaoke,Fast food restaurants,Restaurants",Chicago,"American,Hot Dogs,Fast Food,Hamburgers",41.749943,-87.703185,Burger King,Ashburn,60652
2700 S Kedzie Ave,"Carry-out food,Hot dog restaurants,Burgers,American restaurants,Hamburger restaurants,Fast Food,Fast Food Restaurants,Karaoke,Restaurants,Fast Food Restaurant and Burger Joint Little Village,Family Style,Hamburgers & Hot Dogs,Restaurant,Burger Joint,Fast Food Restaurant",Chicago,"Family Style,American,Burgers,Fast Food,Fast Food Restaurants",41.842377,-87.705429,Burger King,"Little Village, West Side",60623
4060 S Pulaski Rd,"Hamburgers & Hot Dogs,Burger Joint,Restaurant,Fast Food Restaurant,Fast Food Restaurants,Fast Food Restaurant and Burger Joint,Fast Food Restaurant and Burger Joint Archer Heights,Restaurants",Chicago,Fast Food Restaurants,41.818678,-87.724274,Burger King,"Southwest Side, Archer Heights",60632
5211 S Cicero Ave,"Family Style,Restaurant,Carry-out food,Hot dog restaurants,Fast Food Restaurant,Burgers,American restaurants,Hamburger restaurants,Fast Food,Fast food restaurants,Restaurants",Chicago,"Fast Food,Burgers,Family Style,Hamburgers,Hot Dogs,Fast Food Restaurants",41.79825,-87.742444,Burger King,"Southwest Side, Archer Heights",60632
2401 W Ogden Avenue,"Fast Food Restaurants,Hamburgers and Hot Dogs,Restaurants",Chicago,"Fast Food Restaurants,Hamburgers and Hot Dogs,Restaurants,Fast Food",41.86428,-87.68624,Burger King,"Douglas Park,West Side,Lawndale",60608
6448 S Kedzie Avenue,"Fast Food Restaurants,Hamburgers and Hot Dogs,Restaurants",Chicago,"Fast Food Restaurants,Hamburgers and Hot Dogs,Restaurants,Fast Food",41.77596,-87.70337,Burger King,"Marquette Park,South Side",60629
6900 S Halsted Street,"Fast Food Restaurants,Hamburgers and Hot Dogs,Restaurants",Chicago,"Fast Food Restaurants,Hamburgers and Hot Dogs,Restaurants,Fast Food",41.7686,-87.64486,Burger King,"South Side,Englewood",60621
5211 S Cicero Avenue,"Fast Food Restaurants,Hamburgers and Hot Dogs,Restaurants",Chicago,"Fast Food Restaurants,Hamburgers and Hot Dogs,Restaurants,Fast Food",41.79843,-87.74247,Burger King,"Southwest Side,Archer Heights",60632
2000 W 47th Street,"Fast Food Restaurants,Hamburgers and Hot Dogs,Restaurants",Chicago,"Fast Food Restaurants,Hamburgers and Hot Dogs,Restaurants,Fast Food",41.80878,-87.67541,Burger King,"Back of the Yards,Southwest Side",60609
1701 E 95th Street,"Fast Food Restaurants,Hamburgers and Hot Dogs,Restaurants",Chicago,"Fast Food Restaurants,Hamburgers and Hot Dogs,Restaurants,Fast Food",41.72228,-87.58179,Burger King,"Far South Chicago,South Deering",60617
28 E 87th Street,"Fast Food Restaurants,Hamburgers and Hot Dogs,Restaurants",Chicago,"Fast Food Restaurants,Hamburgers and Hot Dogs,Restaurants,Fast Food",41.73665,-87.62295,Burger King,"Chatham,South Side",60619
4125 N Milwaukee Ave,"Take Out,Carry-out food,Hot dog restaurants,American restaurants,Hamburger restaurants,Fast Food,Fast Food Restaurants,Burger Restaurants,Karaoke,Restaurants,Restaurant,Food & Entertainment,Family Restaurants",Chicago,"American,Fast Food,Fast Food Restaurants",41.955822,-87.749771,Burger King,"Northwest Side, Portage Park",60641
5600 N Menard Avenue,"Mexican Restaurants,Fast Food Restaurants,Take Out Restaurants,Restaurants",Chicago,"Mexican Restaurants,Fast Food Restaurants,Take Out Restaurants,Restaurants",41.98305,-87.77352,Burrito Beach,"Jefferson Park,Northwest Side",60646
1017 W Irving Park Road,"American Restaurants,Fast Food Restaurants,Take Out Restaurants,Breakfast Brunch and Lunch Restaurants,,Family Style Restaurants,Hamburgers and Hot Dogs,Restaurants",Chicago,"Take Out,Breakfast,American,Burgers,Fast Food Restaurants,Take Out Restaurants,Breakfast Brunch and Lunch Restaurants,,Fast Food,Family Style Restaurants,Brunch and Lunch,Restaurants,Family Style,American Restaurants,Hot Dogs,Hamburgers and Hot Dogs",41.95441,-87.65539,Byron's Hot Dog,"North Side,Lakeview",60613
4101 W Armitage Ave,"Ice Cream & Frozen Desserts,Restaurant,Internet Cafes,Internet cafes and hot spots,Ice cream parlors,Fast Food Restaurants,Internet and online services,Cafeterias,Restaurants",Chicago,,41.916935,-87.729138,Cafe Internet Latino,"Northwest Side, Hermosa",60639
4101 W Armitage Avenue,"Internet Cafes,Cafeterias,Fast Food Restaurants,Ice Cream and Frozen Desserts",Chicago,"Internet Cafes,Cafeterias,Fast Food Restaurants,Ice Cream and Frozen Desserts,Fast Food,Dessert,Ice Cream",41.91685,-87.72916,Cafe Internet Latino,"Northwest Side,Hermosa",60639
1524 W Fullerton Avenue,"Caterers,Mediterranean Restaurants,Fast Food Restaurants,Restaurants,Middle Eastern Restaurants",Chicago,"Caterers,Mediterranean Restaurants,Fast Food Restaurants,Restaurants,Middle Eastern Restaurants",41.92543,-87.66681,Cairo Kebab,"North Side,DePaul,West De Paul",60614
2230 S Western Avenue,"Chinese Restaurants,Restaurant Delivery Service,Take Out Restaurants,Fast Food Restaurants,Restaurants",Chicago,"Take Out,Chinese Restaurants,Restaurant Delivery Service,Take Out Restaurants,Fast Food Restaurants,Fast Food,Chinese,Delivery,Asian,Restaurants",41.85123,-87.68576,Canton Star Inc,"West Side,Little Village",60608
8550 S Cottage Grove Ave,"Fast Food Restaurant Chatham,Delicatessens,Hot dog restaurants,American,Seafood restaurants,Crabs and crab houses,Seafood,American restaurants,Hamburger restaurants,Chicken Restaurants,Restaurants,Restaurant,Barbecued poultry,Fast Food Restaurant,Restaurants-breakfast and diners,Barbecue,Spare rib restaurants,Chicken restaurants",Chicago,"Seafood Restaurants,Chicken Restaurants,Restaurants,Chicken,Seafood,American",41.738814,-87.605357,Captain Hooks Fish Chicken,"South Side,Chatham",60619
1957 E 83rd Street,"Fast Food Restaurants,American Restaurants,Hamburgers and Hot Dogs,Restaurant Delivery Service,Restaurants,Take Out Restaurants",Chicago,"Fast Food Restaurants,American Restaurants,Hamburgers and Hot Dogs,Restaurant Delivery Service,Restaurants,Take Out Restaurants,Burgers,Delivery,American,Take Out,Hot Dogs,Fast Food",41.7441,-87.57615,Carl's Red Hots,"Far South Chicago,South Chicago",60617
3129 N Central Avenue,"Greek Restaurants,Caterers,Fast Food Restaurants,Mediterranean Restaurants,Restaurants",Chicago,"Greek Restaurants,Caterers,Fast Food Restaurants,Mediterranean Restaurants,Restaurants,Mediterranean,Greek,Fast Food,European,Continental",41.93765,-87.76611,Central Gyros Corp,"Northwest Side,Cragin",60634
2323 W Madison Street,"Asian Restaurants,Caterers,Chinese Restaurants,Fast Food Restaurants,Restaurants",Chicago,"Asian Restaurants,Caterers,Chinese Restaurants,Fast Food Restaurants,Fast Food,Chinese,Asian,Restaurants",41.88081,-87.68512,Chan's King Wok,"West Side,Near West Side",60612
6301 S Kedzie Ave,"Hamburgers & Hot Dogs,American Restaurants,Fast Food Restaurants,Family Style Restaurants,Chicago Restaurants,Restaurants",Chicago,"Hamburgers,Restaurants",41.779,-87.7031,Checkers,"Chicago Lawn, Southwest Side, Chicago Lawn Marquette Park,South Side, Marquette Park",60629
5451 S Wentworth Avenue,"Restaurant,American Restaurants,Fast Food Restaurants,Family Style Restaurants,Hamburgers and Hot Dogs,Restaurants",Chicago,"Fast Food Restaurants,American Restaurants,Family Style Restaurants,Hamburgers and Hot Dogs,Restaurants,Burgers,Chicken,American,Sandwiches,Hot Dogs,Fast Food",41.79483,-87.6304,Checkers,"South Side,Washington Park",60609
6401 W Archer Ave,"American Restaurants,Restaurant,Fast Food Restaurant,Fast Food Restaurants,Burger Restaurants,Chicken Restaurants,Restaurants",Chicago,Restaurants,41.792247,-87.782182,Checkers,"Garfield Ridge, Southwest Side",60638
4320 W North Ave,"Burger Joint,American Restaurants,Fast Food Restaurant,Fast Food Restaurants,Burger Restaurants,Family Style Restaurants,Chicken Restaurants,Hamburgers and Hot Dogs,Restaurants",Chicago,"American Restaurants,Fast Food Restaurants,Hamburgers and Hot Dogs,Restaurants,Family Style Restaurants,Burgers,Chicken,American,Sandwiches,Hot Dogs,Fast Food",41.910025,-87.734593,Checkers,"Northwest Side,Hermosa,Northwest Side, Hermosa",60639
816 W Fullerton Avenue,"Fast Food Restaurants,Continental Restaurants,Hamburgers and Hot Dogs,Restaurants",Chicago,"Fast Food Restaurants,Continental Restaurants,Hamburgers and Hot Dogs,Restaurants,Burgers,American,Hot Dogs,Fast Food,European,Continental",41.92554,-87.64928,Chicago's Dog House,"DePaul,Wrightwood,North Side",60614
7536 N Milwaukee Ave,"Caterers,American,Fried Chicken Joint,American restaurants,Take out restaurants,Restaurants,wholesale locks & locksmiths,Restaurant,Fried Chicken Joint, Fast Food Restaurant, and Food,Barbecued poultry,Fast Food Restaurant,Barbecue,Spare rib restaurants,Chicken restaurants,Food",Chicago,"American Restaurants,Take Out,Caterers,American,Take Out Restaurants,Chicken,Chicken Restaurants,Restaurants",42.017996,-87.807159,Chicken Inn,"Northwest Side,Edison Park,Northwest Side, Edison Park,far-nw-chicago",60631
177 W van Buren St,"Restaurant,Middle Eastern Restaurant,American,Chicago,Fast Food,Restaurants",Chicago,"American,Traditional American,Fast Food,Chicken",41.8767,-87.6333,Chicken Planet,south-loop-near-south,60605
5151 S Pulaski Rd,"Asian Restaurants,Chinese Restaurant,Restaurant,Caterers,Chinese Restaurants,Fast Food,Chinese,Family Style Restaurants,Restaurants,Chinese restaurants",Chicago,"Asian Restaurants,Family Style,Caterers,Chinese Restaurants,Chinese,Fast Food,Family Style Restaurants,Asian,Restaurants",41.79929,-87.722945,China Ho Restaurant,"Southwest Side,West Elsdon,Chicago",60632
5833 S Kedzie Ave,"Asian Restaurants,Caterers,Restaurant delivery service,Chinese Restaurants,American restaurants,Take Out Restaurants,Fast Food Restaurants,Home delivery beer and beverages,Restaurants,Chinese restaurants",Chicago,"Asian Restaurants,Take Out,Caterers,Chinese Restaurants,Restaurant Delivery Service,Take Out Restaurants,Fast Food Restaurants,Fast Food,Chinese,Delivery,Asian,Restaurants",41.7871,-87.7033,Chinese Number One Kitchen,"Southwest Side,Gage Park",60629
5833 S Kedzie Avenue,"Chinese Restaurants,Asian Restaurants,Caterers,Fast Food Restaurants,Restaurant Delivery Service,Restaurants,Take Out Restaurants",Chicago,"Chinese Restaurants,Asian Restaurants,Caterers,Fast Food Restaurants,Restaurant Delivery Service,Restaurants,Take Out Restaurants,Delivery,Asian,Take Out,Fast Food,Chinese",41.78721,-87.70329,Chinese Number One Kitchen,"Southwest Side,Gage Park",60629
6600 N Sheridan Rd,"Take Out,Mexican,Mexican Restaurant, Burrito Place, and Taco Place Rogers Park,Mexican Restaurants,Taco Place,Fast Food,Take Out Restaurants,Fast Food Restaurants,Restaurants,Mexican Restaurant,Restaurant,Mexican Restaurant, Burrito Place, and Taco Place,Burrito Place",Chicago,"Mexican,Fast Food,Take Out Restaurants",42.002701,-87.661012,Chipotle Mexican Grill,"North Side, Rogers Park",60626
10 E Jackson Boulevard,"Fast Food Restaurants,Mexican Restaurants,Restaurants,Take Out Restaurants",Chicago,"Fast Food Restaurants,Mexican Restaurants,Restaurants,Take Out Restaurants,Mexican,Latin American",41.87829,-87.62736,Chipotle Mexican Grill,"Central Chicago,The Loop",60604
1659 N Ashland Avenue,"American Restaurants,Caterers,Hot Dog Stands and Restaurants,Fast Food Restaurants,Breakfast Brunch and Lunch Restaurants,,Hamburgers and Hot Dogs,Restaurants,Sandwich Shops",Chicago,"Caterers,Breakfast,American,Burgers,Fast Food Restaurants,Breakfast Brunch and Lunch Restaurants,,Fast Food,Brunch and Lunch,Restaurants,American Restaurants,Hot Dog Stands and Restaurants,Hot Dogs,Hamburgers and Hot Dogs,Sandwiches,Sandwich Shops",41.91219,-87.66747,Choppers,"Northwest Side,Bucktown",60622
431 N Austin Blvd,"Restaurant,Chain Restaurant,Fried Chicken Joint,Take Out Restaurants,Fast Food Restaurants,Chicken Restaurants,Restaurants",Chicago,"Chain Restaurant,American,Take Out Restaurants",41.888266,-87.774849,Church's Chicken,"South Austin, Northwest Side, Austin",60644
2626 E 79TH St,"Fried Chicken Joint,Fried Chicken Joint South Chicago,Take Out Restaurants,Fast Food Restaurants,Chicken Restaurants,Catering,Restaurants",Chicago,"Traditional American,Fast Food,Fast Food Restaurants,Chicken,Southern",41.7518,-87.5604,Church's Chicken,"Far South Chicago, South Shore",60649
6849 S Western Ave,"Restaurant,Fried Chicken Joint,American Restaurant and Fried Chicken Joint West Englewood,American Restaurant,Fast Food Restaurants,Take Out Restaurants,Chicken Restaurants,Restaurants,Chicken Take Out",Chicago,"Chicken,Chicken Restaurants",41.7847,-87.6839,Church's Chicken,"South Side, West Englewood",60636
4812 W North Ave,"Fried Chicken Joint,Fast Food Restaurant,Fast Food Restaurants,Chicken Restaurants,Catering,Restaurants,Chicken Take Out,Fried Chicken Joint and Fast Food Restaurant Austin",Chicago,"Traditional American,Fast Food,Take Out Restaurants,Chicken,Southern",41.9098,-87.7465,Church's Chicken,"North Austin, Northwest Side, Austin",60639
2 S Pulaski Rd,"Food East Garfield Park,Fast Food Restaurants,Take Out Restaurants,Chicken Restaurants,Fried Chicken Joint and Fast Food Restaurant West Garfield Park,Catering,Fried Chicken Joint and Fast Food Restaurant,Restaurants,Chicken Take Out,Food",Chicago,"Traditional American,Fast Food,Fast Food Restaurants,Chicken,Southern",41.8807,-87.7257,Church's Chicken,"West Side, East Garfield Park",60624
1151 S Independence Blvd,"Fried Chicken Joint,Fast Food Restaurants,Chicken Restaurants,Catering,Restaurants,Chicken Take Out",Chicago,"Traditional American,Fast Food,Chicken,Southern,Chicken Restaurants",41.8666,-87.7195,Church's Chicken,"West Side, Lawndale",60624
101 E 35TH St,"Carry-out food,Fast Food Restaurants,Take Out Restaurants,Fast Food,Debit Card Accepted,Chicken Restaurants,Carry Out,Family-Friendly Dining,Restaurants,Mastercard Accepted,Visa Accepted,Barbecued poultry,Fast Food Restaurant,Traditional American,Cheap Eats,Lunch Spot,Chicken,Barbecue,Southern,Spare rib restaurants,Catering",Chicago,"Traditional American,Fast Food,Take Out Restaurants,Chicken,Southern",41.831,-87.6232,Church's Chicken,"South Side, Douglas, Bronzeville",60616
6849 S Western Avenue,"Fast Food Restaurants,Chicken Restaurants,Restaurants,Take Out Restaurants",Chicago,"Fast Food Restaurants,Chicken Restaurants,Restaurants,Take Out Restaurants,Chicken,Take Out,Fast Food",41.76897,-87.68323,Church's Chicken,"South Side,West Englewood",60636
200 E 103rd Street,"Fast Food Restaurants,Chicken Restaurants,Restaurants,Take Out Restaurants",Chicago,"Fast Food Restaurants,Chicken Restaurants,Restaurants,Take Out Restaurants,Chicken,Take Out,Fast Food",41.70751,-87.61828,Church's Chicken,"Far South Chicago,Rosemoor,Roseland",60628
5840 W 63rd St,"Pizza,Restaurant,Caterers,Italian,Fast Food,Restaurants,Italian Restaurants",Chicago,"Caterers,Italian,Open For Lunch and Dinner,Pizza By The Slice,Fast Food,European,Restaurants,Italian Restaurants,Pizza,Thin Crust Pizza,Continental,Salads,Soups,Pasta,Hot  Cold Sandwiches,Famous Stuffed Pizza",41.77819,-87.76805,Cipriani's Pizza,"Clearing,Southwest Side",60638
7616 W Belmont Avenue,"Fast Food Restaurants,Mexican Restaurants,Restaurants",Chicago,"Fast Food Restaurants,Mexican Restaurants,Restaurants",41.93821,-87.81726,Del Taco,"Belmont Heights,Northwest Side",60634
3257 W 26th Street,"Take Out Restaurants,American Restaurants,Caterers,Fast Food Restaurants,Pizza,Restaurants",Chicago,"Take Out Restaurants,American Restaurants,Caterers,Fast Food Restaurants,Pizza,Restaurants,American,Take Out,Fast Food",41.84434,-87.7072,Dennis Carry-Outs,"West Side,Little Village",60623
767 S State Street,"American Restaurants,Hot Dog Stands and Restaurants,Fast Food Restaurants,Barbecue Restaurants,Hamburgers and Hot Dogs,Restaurants",Chicago,"American Restaurants,Hot Dog Stands and Restaurants,American,Burgers,Hot Dogs,Fast Food Restaurants,Fast Food,Barbecue Restaurants,Barbecue,Hamburgers and Hot Dogs,Restaurants",41.87207,-87.6271,Devil Dawgs,"South Loop,Central Chicago",60605
4135 S Archer Avenue,"Take Out Restaurants,American Restaurants,Caterers,Fast Food Restaurants,Hamburgers and Hot Dogs,Hot Dog Stands and Restaurants,Latin American Restaurants,Mediterranean Restaurants,Mexican Restaurants,Restaurants",Chicago,"Take Out Restaurants,American Restaurants,Caterers,Fast Food Restaurants,Hamburgers and Hot Dogs,Hot Dog Stands and Restaurants,Latin American Restaurants,Mediterranean Restaurants,Mexican Restaurants,Restaurants,Burgers,Mediterranean,American,Mexican,Take Out,Hot Dogs,Fast Food,Latin American",41.81823,-87.6973,Dino's Carry Outs,"Southwest Side,Brighton Park",60632
5016 S Pulaski Rd,"Pizza,Restaurant,Take Out,Pizza Restaurants,Take Out Restaurants,Fast Food Restaurants,Fast Food,Pizza Place,Restaurants,Pizza Delivery",Chicago,"Pizza,Take Out Restaurants,Fast Food Restaurants,Fast Food,Restaurants",41.8017,-87.7235,Domino's Pizza,"Southwest Side,Archer Heights",60632
3144 W Devon Ave,"Take Out,Pizza Restaurants,Take Out Restaurants,Fast Food Restaurants,Fast Food,Pizza Place West Ridge,Chicken Restaurants,Restaurants,Pizza Delivery,Pizza,Restaurant,Pizza Place,Food & Beverage Delivery Services",Chicago,"Pizza,Restaurants,Take Out Restaurants,Fast Food Restaurants,Fast Food",41.9973,-87.7087,Domino's Pizza,"West Ridge,North Side,West Ridge, North Side",60659
5401 S Harlem Ave,"Pizza,Restaurant,Take Out,Pizza Restaurants,Pizza Place Garfield Ridge,Take Out Restaurants,Fast Food Restaurants,Pizza Place,Restaurants,Pizza Delivery",Chicago,"Pizza,Take Out Restaurants,Fast Food Restaurants,Restaurants",41.79402,-87.801286,Domino's Pizza,"Garfield Ridge,Southwest Side",60638
1415 W Irving Park Rd,"Pizza,Restaurant,Take Out Restaurants,Fast Food Restaurants,Fast Food,Pizza Place,Restaurants",Chicago,"Pizza,Take Out Restaurants,Fast Food Restaurants,Fast Food,Restaurants",41.9543,-87.665,Domino's Pizza,"North Side,Lakeview",60613
1234 S Canal St,"Pizza,Restaurant,Take Out,Pizza Restaurants,Pizza Place South Loop,Take Out Restaurants,Fast Food Restaurants,Fast Food,Pizza Place,Chicken Restaurants,Food & Beverage Delivery Services,Restaurants",Chicago,"Pizza,Take Out Restaurants,Fast Food Restaurants,Fast Food,Restaurants",41.866745,-87.639206,Domino's Pizza,"Central Chicago,South Loop,Central Chicago, South Loop",60607
5410 W Devon Ave,"Pizza,Restaurant,Take Out,Pizza Restaurants,Pizza Place Edgebrook,Take Out Restaurants,Fast Food Restaurants,Pizza Place,Restaurants,Pizza Delivery",Chicago,"Pizza,Take Out Restaurants,Fast Food Restaurants,Restaurants",41.99743,-87.76433,Domino's Pizza,"Edgebrook,Northwest Side",60646
143 W Division St,"Pizza,Restaurant,Food Delivery,Take Out Restaurants,Fast Food Restaurants,Fast Food,Pizza Place,Restaurants",Chicago,"Pizza,Take Out Restaurants,Fast Food Restaurants,Fast Food,Restaurants",41.9038,-87.6332,Domino's Pizza,"Central Chicago,Near North Side",60610
2401 N Clybourn Ave,"Pizza,Restaurant,Take Out,Pizza Restaurants,Take Out Restaurants,Fast Food Restaurants,Pizza Place,Food & Beverage Delivery Services,Chicken Restaurants,Restaurants",Chicago,"Pizza,Restaurants,Take Out Restaurants,Fast Food Restaurants",41.92543,-87.66932,Domino's Pizza,"DePaul,North Side,Lathrop",60614
901 W Madison St,"Pizza,Restaurant,Food Delivery,Take Out Restaurants,Fast Food Restaurants,Pizza Place,Restaurants",Chicago,"Pizza,Restaurants,Take Out Restaurants,Fast Food Restaurants",41.8816,-87.6499,Domino's Pizza,"Near West Side,West Side",60607
5008 N Pulaski Rd,"Pizza,Restaurant,Food Delivery,Take Out Restaurants,Fast Food Restaurants,Fast Food,Pizza Place,Restaurants",Chicago,"Pizza,Restaurants,Take Out Restaurants,Fast Food Restaurants,Fast Food",41.9723,-87.7286,Domino's Pizza,"North Mayfair,Northwest Side",60630
4608 W Fullerton Ave,"Pizza,Restaurant,Take Out,Pizza Restaurants,Pizza Place Kelvin Park,Food Delivery,Take Out Restaurants,Fast Food Restaurants,Fast Food,Pizza Place,Restaurants,Pizza Delivery",Chicago,"Pizza,Take Out Restaurants,Fast Food Restaurants,Fast Food,Restaurants",41.9247,-87.742,Domino's Pizza,"Belmont Gardens,Kelvin Park,Northwest Side",60639
321 E 35th Street,"Pizza,Take Out Restaurants,Fast Food Restaurants,Restaurants",Chicago,"Pizza,Take Out,Take Out Restaurants,Fast Food Restaurants,Fast Food,Restaurants",41.83099,-87.61853,Domino's Pizza,"South Side,Bronzeville,Douglas,The Gap",60616
1453 E Hyde Park Boulevard,"Pizza,Take Out Restaurants,Fast Food Restaurants,Restaurants",Chicago,"Pizza,Take Out Restaurants,Fast Food Restaurants,Restaurants",41.80239,-87.59042,Domino's Pizza,"Hyde Park,Far South Chicago",60615
8151 S Cottage Grove Avenue,"Pizza,Take Out Restaurants,Fast Food Restaurants,Restaurants",Chicago,"Pizza,Take Out,Take Out Restaurants,Fast Food Restaurants,Fast Food,Restaurants",41.74604,-87.60494,Domino's Pizza,"South Side,Chatham,East Chatham",60619
2306 W 95th Street,"Pizza,Fast Food Restaurants,Restaurants,Take Out Restaurants",Chicago,"Pizza,Fast Food Restaurants,Restaurants,Take Out Restaurants,Take Out,Fast Food",41.72111,-87.68021,Domino's Pizza,"Beverly,Far South Chicago",60643
4323 S Ashland Avenue,"Pizza,Take Out Restaurants,Fast Food Restaurants,Restaurants",Chicago,"Pizza,Take Out Restaurants,Fast Food Restaurants,Restaurants",41.81483,-87.66499,Domino's Pizza,"Southwest Side,Back of the Yards",60609
2508 W Cermak Road,"Pizza,Take Out Restaurants,Fast Food Restaurants,Restaurants",Chicago,"Pizza,Take Out Restaurants,Fast Food Restaurants,Restaurants",41.85205,-87.68847,Domino's Pizza,"West Side,Little Village",60608
1234 S Canal Street,"Pizza,Fast Food Restaurants,Restaurants,Take Out Restaurants",Chicago,"Pizza,Fast Food Restaurants,Restaurants,Take Out Restaurants",41.866,-87.63933,Domino's Pizza,"Central Chicago,South Loop",60607
800 N Kedzie Avenue,"Pizza,Fast Food Restaurants,Restaurants,Take Out Restaurants",Chicago,"Pizza,Fast Food Restaurants,Restaurants,Take Out Restaurants",41.89567,-87.70665,Domino's Pizza,"Humboldt Park,Northwest Side",60651
2331 W Madison Street,"Pizza,Fast Food Restaurants,Restaurants,Take Out Restaurants",Chicago,"Pizza,Fast Food Restaurants,Restaurants,Take Out Restaurants",41.88112,-87.68533,Domino's Pizza,"Near West Side,West Side",60612
3103 N Clark Street,"Pizza,Take Out Restaurants,Fast Food Restaurants,Restaurants",Chicago,"Pizza,Take Out Restaurants,Fast Food Restaurants,Restaurants",41.93792,-87.64889,Domino's Pizza,"North Side,Lakeview,Lake View East",60657
321 E 35th St,"Pizza,Take Out Restaurants,Fast Food Restaurants,Restaurants",Chicago,"Pizza,Take Out Restaurants,Fast Food Restaurants,Restaurants",41.83099,-87.61853,Domino's Pizza,"South Side,Bronzeville,Douglas",60616
1453 E Hyde Park Blvd,"Pizza,Restaurant,Take Out,Pizza Restaurants,Take Out Restaurants,Fast Food Restaurants,Fast Food,Pizza Place,Food & Beverage Delivery Services,Chicken Restaurants,Restaurants",Chicago,"Pizza,Restaurants,Take Out Restaurants,Fast Food Restaurants,Fast Food",41.802217,-87.589721,Dominos Pizza,"Far South Chicago,Hyde Park",60615
2455 W Fullerton Ave,"Pizza,Restaurant,Take Out Restaurants,Fast Food Restaurants,Fast Food,Pizza Place,Restaurants",Chicago,"Pizza,Restaurants,Take Out Restaurants,Fast Food Restaurants,Fast Food",41.924544,-87.68959,Dominos Pizza,"Northwest Side,Logan Square,Northwest Side, Logan Square",60647
3336 N Harlem Ave,"Pizza,Restaurant,Take Out Restaurants,Fast Food Restaurants,Fast Food,Pizza Place,Restaurants",Chicago,"Pizza,Restaurants,Take Out Restaurants,Fast Food Restaurants,Fast Food",41.940922,-87.807206,Dominos Pizza,"Belmont Heights,Northwest Side",60634
4039 W 26th St,"Take Out,Pizza Restaurants,Take Out Restaurants,Fast Food Restaurants,Fast Food,Chicken Restaurants,Restaurants,Pizza Delivery,Pizza,Restaurant,Pizza Place Little Village,Food & Beverage Delivery Services,Pizza Place",Chicago,"Pizza,Restaurants,Take Out Restaurants,Fast Food Restaurants,Fast Food",41.844031,-87.726171,Dominos Pizza,"West Side,Little Village,West Side, Little Village",60623
4759 S Central Avenue,"American Restaurants,Caterers,Fast Food Restaurants,Hamburgers and Hot Dogs,Restaurants",Chicago,"American Restaurants,Caterers,American,Burgers,Hot Dogs,Fast Food Restaurants,Fast Food,Hamburgers and Hot Dogs,Restaurants",41.80561,-87.76231,Donald's Famous Hot Dogs,"Southwest Side,Garfield Ridge",60638
8753 S Stony Island Ave,"Coffee Shop,Bagels,Donut Shops,Donut Shop and Coffee Shop,Donuts,Doughnuts,Fast Food,Restaurants,Coffee house and espresso bar restaurants,Donut Shop,Restaurant,Coffee Shops,Coffee Retail,Coffee & Tea Shops,Bakeries,Coffee & Espresso Restaurants",Chicago,"Fast Food,Coffee Shops",41.735287,-87.584904,Dunkin Donuts,"Calumet Heights, Far South Chicago",60617
9802 S Halsted St,"Donut Shop,Restaurant,Coffee Shop,Bagels,Donut Shops,Donut Shop and Coffee Shop,Fast Food,Bakeries,Coffee & Espresso Restaurants,Restaurants",Chicago,"Fast Food,Donut Shops",41.715418,-87.643237,Dunkin Donuts,"Longwood Manor, South Side",60628
2340 W 52nd St,"Coffee Shop,Bagels,Donut Shops,Donut Shop and Coffee Shop,Donuts,Fast Food,Donut Shop and Coffee Shop Gage Park,Restaurants,Donut Shop,Restaurant,Coffee Retail,Coffee & Tea Shops,Dessert Shops,Coffeehouses,Diners,Doughnut Shops,Bakeries,Coffee & Espresso Restaurants,Donut Shop and Coffee Shop Chicago Lawn",Chicago,"Fast Food,Donut Shops",41.7989,-87.6834,Dunkin' Donuts,"Southwest Side, Gage Park",60609
2477 S Archer Ave,"Coffee Shop,Bagels,American,Donut Shops,Fast Food,Restaurants,Donut Shop,Restaurant,Dessert Shops,Coffeehouses,Diners,Doughnut Shops,Bakeries,Coffee & Espresso Restaurants",Chicago,"American,Fast Food,Donut Shops",41.8471,-87.646,Dunkin' Donuts,"Bridgeport, Southwest Side",60616
5448 S Pulaski Rd,"Coffee Shop,Bagels,Donut Shops,Donuts,Fast Food,Restaurants,Donut Shop,Restaurant,Coffee Retail,Coffee & Tea Shops,Dessert Shops,Coffeehouses,Diners,Doughnut Shops,Bakeries,Coffee & Espresso Restaurants",Chicago,"Fast Food,Donut Shops",41.7936,-87.7236,Dunkin' Donuts,"West Elsdon, Southwest Side",60632
6100 S Western Ave,"Coffee Shop,Bagels,Donut Shops,Donuts,Doughnuts,Fast Food,Food products,Restaurants,Coffee house and espresso bar restaurants,Donut Shop,Restaurant,Coffee Retail,Coffee & Tea Shops,Bakeries,Coffee & Espresso Restaurants,Donut Shop and Coffee Shop Chicago Lawn",Chicago,"Fast Food,Donut Shops",41.78278,-87.683825,Dunkin' Donuts,"South Side, West Englewood",60636
6045 N Cicero Ave,"Restaurant,American Restaurants,Caterers,Breakfast & Brunch,Fast Food Restaurants,Hamburgers and Hot Dogs,Restaurants",Chicago,"Breakfast and Brunch,Fast Food Restaurants,Hamburgers and Hot Dogs,American Restaurants,Caterers,Restaurants,Burgers,American,Hot Dogs,Fast Food",41.99122,-87.74831,Edens Fast Food Restaurant,"Northwest Side,Sauganash",60646
5225 S Harper Court,"Bagels,Coffee and Tea,Fast Food,Breakfast Brunch and Lunch Restaurants,,Lunch Restaurants,Restaurants",Chicago,"Bagels,Breakfast Brunch and Lunch Restaurants,,Restaurants",41.79996,-87.58805,Einstein Bros Bagels,"Hyde Park,Far South Chicago",60615
936 W Addison Street,"Mexican Restaurants,Fast Food Restaurants,Latin American Restaurants,Restaurants,Spanish Restaurants,Take Out Restaurants",Chicago,"Mexican Restaurants,Fast Food Restaurants,Latin American Restaurants,Restaurants,Spanish Restaurants,Take Out Restaurants,Spanish,Mexican,Take Out,Fast Food,Latin American,European,Continental",41.94731,-87.65346,El Burrito Mexicano,"Wrigleyville,North Side,Lakeview",60613
4011 N Elston Avenue,"Take Out Restaurants,Breakfast Brunch and Lunch Restaurants,,Family Style Restaurants,Fast Food Restaurants,Latin American Restaurants,Restaurants",Chicago,"Take Out Restaurants,Breakfast Brunch and Lunch Restaurants,,Family Style Restaurants,Fast Food Restaurants,Latin American Restaurants,Restaurants,Family Style,Take Out,Fast Food,Breakfast,Brunch and Lunch,Latin American",41.95424,-87.7194,El Llano Restaurant,"Albany Park,Northwest Side,Irving Park",60618
1959 W Chicago Ave,"Natural food restaurants,Mexican,Caterers,Mexican Restaurants,Take Out Restaurants,Latin American Restaurants,Restaurants,Mexican Restaurant,Juice bars,Restaurant,Vegetarian restaurants,Fast Food Restaurant,Health food restaurants,Street Food & Stands",Chicago,"Mexican,Street Food and Stands,Latin American Restaurants",41.895825,-87.677047,El Metro,"East Ukrainian Village, Northwest Side",60622
1000 W North Avenue,"American Restaurants,Restaurant Delivery Service,Fast Food Restaurants,Take Out Restaurants,Breakfast Brunch and Lunch Restaurants,,Hamburgers and Hot Dogs,Restaurants",Chicago,"Take Out,Breakfast,American,Restaurant Delivery Service,Burgers,Fast Food Restaurants,Take Out Restaurants,Breakfast Brunch and Lunch Restaurants,,Fast Food,Brunch and Lunch,Restaurants,American Restaurants,Hot Dogs,Delivery,Hamburgers and Hot Dogs",41.9111,-87.65344,Epic Burger,"North Side,DePaul,Central Chicago,Goose Island,Ranch Triangle",60642
517 S State Street,"American Restaurants,Caterers,Fast Food Restaurants,Breakfast Brunch and Lunch Restaurants,,Family Style Restaurants,Hamburgers and Hot Dogs,Restaurants",Chicago,"Caterers,Breakfast,American,Burgers,Fast Food Restaurants,Breakfast Brunch and Lunch Restaurants,,Fast Food,Family Style Restaurants,Brunch and Lunch,Restaurants,Family Style,American Restaurants,Hot Dogs,Hamburgers and Hot Dogs",41.87523,-87.627625,Epic Burger,"South Loop,Central Chicago,Printers Row",60605
227 E Ontario St Ste B,"American Restaurants,Fast Food Restaurants,Hamburgers and Hot Dogs,Restaurants",Chicago,"American Restaurants,American,Burgers,Hot Dogs,Fast Food Restaurants,Fast Food,Hamburgers and Hot Dogs,Restaurants",41.89314,-87.62161,Epic Burger,"Near North Side,Streeterville,Central Chicago",60611
3332 W 63rd Street,"Mexican Restaurants,Fast Food Restaurants,Restaurants",Chicago,"Mexican Restaurants,Fast Food Restaurants,Restaurants,Mexican,Fast Food,Latin American",41.77919,-87.70689,Fast Food El Mexicano,"Chicago Lawn,Marquette Park,South Side",60629
229 S Western Avenue,"Take Out Restaurants,Dessert Restaurants,Family Style Restaurants,Fast Food Restaurants,Hamburgers and Hot Dogs,Pizza,Restaurants",Chicago,"Take Out Restaurants,Dessert Restaurants,Family Style Restaurants,Fast Food Restaurants,Hamburgers and Hot Dogs,Pizza,Restaurants",41.87817,-87.68636,Felony Franks,"West Side,Near West Side",60612
7832 S Ashland Avenue,"Hamburgers and Hot Dogs,American Restaurants,Fast Food Restaurants,Restaurants",Chicago,"Hamburgers and Hot Dogs,American Restaurants,Fast Food Restaurants,Restaurants,Burgers,American,Hot Dogs,Fast Food",41.75119,-87.66359,Fiesta Burger Heaven,"Gresham,South Side",60620
720 E 75th Street,"American Restaurants,Caterers,Bakery Restaurants,Fast Food Restaurants,Take Out Restaurants,Bakeries,Barbecue Restaurants,Chicken Restaurants,Restaurants,Italian Restaurants",Chicago,"Barbecue Restaurants,American Restaurants,Caterers,Chicken Restaurants,Fast Food Restaurants,Italian Restaurants,Restaurants,Take Out Restaurants,Barbecue,Chicken,American,Take Out,Fast Food,Italian,European,Continental",41.75861,-87.60688,Firehouse Bakery and Grill,"Park Manor,South Side",60619
6477 N Sheridan Rd,"Restaurant,Burger Joint,Burgers,American Restaurant,Fast Food Restaurant,Fast Food,Hamburgers,Restaurants",Chicago,"Fast Food,Burgers,Hamburgers",42.000222,-87.660707,Five Guys,Rogers Park,60626
1456 E 53rd Street,"Hamburgers and Hot Dogs,Fast Food Restaurants,Restaurants",Chicago,"Hamburgers and Hot Dogs,Fast Food Restaurants,Restaurants,Burgers,American,Hot Dogs,Fast Food",41.79959,-87.58999,Five Guys Burgers Fries,"Far South Chicago,Hyde Park",60615
1058 W Polk Street,"Italian Restaurants,Bakeries,Caterers,Delicatessens,Dessert Restaurants,Fast Food Restaurants,Restaurants,Take Out Restaurants",Chicago,"Italian Restaurants,Bakeries,Caterers,Delicatessens,Dessert Restaurants,Fast Food Restaurants,Restaurants,Take Out Restaurants,Deli,Take Out,Fast Food,Italian,Dessert,European,Continental",41.87206,-87.65343,Fontano Foods,"West Side,University Village Little Italy",60607
3550 N Harlem Ave,"Hot Dog Joint,Restaurant,American,Greek Restaurants,American restaurants,Fast Food,Karaoke,Barbecue Restaurants,Hamburgers and Hot Dogs,Restaurants,Chinese restaurants",Chicago,"American,Greek Restaurants,Fast Food,Barbecue Restaurants,Barbecue,Hamburgers and Hot Dogs,Greek,Restaurants",41.944569,-87.806978,Franksville,"Northwest Side,Belmont Heights",60634
701 W 31st Street,"Pizza,American Restaurants,Hot Dog Stands and Restaurants,Take Out Restaurants,Fast Food Restaurants,Restaurants,Italian Restaurants,Sandwich Shops",Chicago,"Take Out,Italian,American,Take Out Restaurants,Fast Food Restaurants,Fast Food,European,Restaurants,Italian Restaurants,Pizza,American Restaurants,Hot Dog Stands and Restaurants,Continental,Hot Dogs,Sandwiches,Sandwich Shops",41.83783,-87.644,Freddie's,"Bridgeport,Southwest Side",60616
1876 N Damen Avenue,"American Restaurants,Caterers,Hot Dog Stands and Restaurants,Take Out Restaurants,Fast Food Restaurants,Hamburgers and Hot Dogs,Restaurants",Chicago,"American Restaurants,Take Out,Caterers,Hot Dog Stands and Restaurants,American,Burgers,Hot Dogs,Take Out Restaurants,Fast Food Restaurants,Fast Food,Hamburgers and Hot Dogs,Restaurants",41.91604,-87.67789,George's Hot Dogs,"Northwest Side,Bucktown",60647
335 W 31st Street,"Steak Houses,American Restaurants,Barbecue Restaurants,Caterers,Fast Food Restaurants,Restaurants",Chicago,"Steak Houses,American Restaurants,Barbecue Restaurants,Caterers,Fast Food Restaurants,Restaurants",41.83792,-87.63547,Ginos Steaks Truck Chicago,"Armour Square,Southwest Side",60616
225 S Canal Street,"American Restaurants,Hot Dog Stands and Restaurants,Seafood Restaurants,Fast Food Restaurants,Take Out Restaurants,Family Style Restaurants,Hamburgers and Hot Dogs,Restaurants",Chicago,"Take Out,American,Burgers,Seafood,Fast Food Restaurants,Take Out Restaurants,Fast Food,Family Style Restaurants,Restaurants,Family Style,American Restaurants,Hot Dog Stands and Restaurants,Seafood Restaurants,Hot Dogs,Hamburgers and Hot Dogs",41.87901,-87.63946,Gold Coast Dogs,"Central Chicago,The Loop,West Loop",60606
1422 W Morse Ave,"Greek Restaurants,Restaurant Delivery Service,Food Delivery,Fast Food Restaurants,Carry Out,Burger Joint and American Restaurant Rogers Park,Open 7 Days,Visa Accepted,Burger Joint,People Watching,Cheap Eats,American Restaurant,Take Out Restaurants,Breakfast Brunch and Lunch Restaurants,,Family Style Restaurants,Family-Friendly Dining,Restaurants,Mastercard Accepted,Burger Joint and American Restaurant,Restaurant,Mediterranean,Mediterranean Restaurants,Lunch Spot,Local Favorite,Hamburgers and Hot Dogs,Hidden Find",Chicago,"Take Out,Breakfast,American,Greek Restaurants,Restaurant Delivery Service,Burgers,Take Out Restaurants,Breakfast Brunch and Lunch Restaurants,,Fast Food Restaurants,Fast Food,Family Style Restaurants,Brunch and Lunch,European,Restaurants,Family Style,Mediterranean,Mediterranean Restaurants,Continental,Hot Dogs,Delivery,Hamburgers and Hot Dogs,Greek",42.008,-87.6669,Grill Inn,"North Side,Rogers Park",60626
1901 W 87th St,"BBQ Joint,Fast Food Restaurants,Restaurants",Chicago,Fast Food Restaurants,41.73561,-87.670444,Gyro House Steak Lemonade,"South Side, Gresham",60620
2826 N Lincoln Avenue,"Greek Restaurants,Fast Food Restaurants,Mediterranean Restaurants,Restaurants",Chicago,"Greek Restaurants,Fast Food Restaurants,Mediterranean Restaurants,Restaurants,Mediterranean,Greek,Fast Food,European,Continental",41.93306,-87.65986,Gyros On The Spit,"North Side,Lakeview",60657
1052 E 47th Street,"Fast Food Restaurants,Restaurants,Take Out Restaurants",Chicago,"Fast Food Restaurants,Restaurants,Take Out Restaurants,Take Out,Fast Food",41.8097,-87.59953,Hamburger Heaven,"Bronzeville,North Kenwood,South Side,Kenwood",60653
5400 N Clark St,"American Express,Breweries and brew pubs,Burgers,Late Night Dining,American restaurants,Hamburger restaurants,Visa,MasterCard,New American Restaurants,Open 7 Days,Pubs,Burger Joint,People Watching,Certified Green Restaurant(R),Cheap Eats,Traditional American Restaurants,Hamburgers,Burger Joint and American Restaurant Andersonville,Hot dog restaurants,Outdoor Dining,American Restaurant,Fast Food,Family-Friendly Dining,Discover,Restaurants,Pizza,Restaurant,Certified Green Restaurant(r),Lunch Spot,Local Favorite,Hidden Find",Chicago,"Burger,New American,Bar,American,Burgers,Traditional American,Fast Food,Hamburgers",41.98,-87.6685,Hamburger Mary's,Andersonville,60640
8710 S Halsted St,"Pizza,fast food restaurant,Restaurants",Chicago,Pizza,41.7357,-87.64367,Happy's Pizza,"Auburn Gresham, Far southwest Side",60620
808 E 79th Street,"Chicken Restaurants,Fast Food Restaurants,Restaurants,Take Out Restaurants",Chicago,"Chicken Restaurants,Fast Food Restaurants,Restaurants,Take Out Restaurants,Chicken,Take Out,Fast Food",41.75137,-87.605,Harold's Chicken Shack,"Far South Chicago,Grand Crossing",60619
612 S Wabash Avenue,"Take Out Restaurants,Chicken Restaurants,Fast Food Restaurants,Restaurant Delivery Service,Restaurants",Chicago,"Take Out Restaurants,Chicken Restaurants,Fast Food Restaurants,Restaurant Delivery Service,Restaurants,Delivery,Chicken,Take Out,Fast Food",41.87422,-87.62605,Harold's Chicken Shack,"Central Chicago,South Loop",60605
1208 E 53rd St,"Restaurant,Seafood Restaurant,American,Fried Chicken Joint,Fast Food Restaurant,Restaurants",Chicago,"American Restaurants,American,Fast Food",41.799973,-87.59608,Harold's Chicken Shacks,"Far South Chicago, Hyde Park",60615
7116 S Yates Boulevard,"Fast Food Restaurants,Delicatessens,Restaurant Delivery Service,Restaurants,Take Out Restaurants",Chicago,"Fast Food Restaurants,Delicatessens,Restaurant Delivery Service,Restaurants,Take Out Restaurants,Deli,Delivery,Take Out,Fast Food",41.76569,-87.56657,Hoagy House,"Far South Chicago,South Shore",60649
2241 N Western Avenue,"Barbecue Restaurants,Caterers,Fast Food Restaurants,Restaurants,Take Out Restaurants",Chicago,"Barbecue Restaurants,Caterers,Fast Food Restaurants,Restaurants,Take Out Restaurants,Barbecue,Take Out,Fast Food",41.92292,-87.68745,Honey One Bbq,"Northwest Side,Bucktown",60647
6237 N Western Ave,"Hamburgers & Hot Dogs,Restaurant,American Restaurants,Mexican Restaurants,Breakfast & Brunch,Fast Food Restaurant,Fast Food Restaurant West Ridge,Latin American Restaurants,Restaurants",Chicago,"Breakfast and Brunch,Mexican Restaurants",41.994799,-87.689573,Hot Rod Grill,"West Ridge, North Side",60659
S Ewing Avenue,"Chinese Restaurants,Asian Restaurants,Fast Food Restaurants,Restaurants,Take Out Restaurants",Chicago,"Chinese Restaurants,Asian Restaurants,Fast Food Restaurants,Restaurants,Take Out Restaurants,Asian,Take Out,Fast Food,Chinese",41.70249,-87.53514,Hot Wok,"Far South Chicago,East Side",60617
331 S Franklin St,"Caterers,Restaurant Delivery Service,Food Delivery,Persian,Fast Food Restaurants,Health Food,Carry Out,Falafel Restaurant,Breakfast Brunch & Lunch Restaurants,,Middle Eastern Restaurant,Falafel,Take Out Restaurants,Health Food Restaurants,Breakfast Brunch and Lunch Restaurants,,Fast Food,Moroccan,Restaurants,Mediterranean Restaurant,Restaurant,Mediterranean,Vegan Restaurants,Mediterranean Restaurants,Lunch Spot,Vegetarian Restaurants,Middle Eastern Restaurants",Chicago,"Take Out,Breakfast,Vegetarian,Restaurant Delivery Service,Persian,Take Out Restaurants,Fast Food Restaurants,Health Food Restaurants,Breakfast Brunch and Lunch Restaurants,,Fast Food,Vegetarian Friendly,Brunch and Lunch,Restaurants,Vegan,Mediterranean,Vegan Restaurants,Middle Eastern,Mediterranean Restaurants,Halal,Delivery,Vegetarian Restaurants,Vegan Options,Healthy,Middle Eastern Restaurants",41.8772,-87.6348,I Dream of Falafel,"Central Chicago,The Loop,Central Chicago, The Loop",60606
1861 W 87th St,"Restaurant,Restaurant delivery service,Seafood Restaurants,Seafood Restaurant,Seafood restaurants,Crabs and crab houses,Seafood Restaurant and Fast Food Restaurant Gresham,Fast Food Restaurant,Fast Food Restaurants,Take Out Restaurants,Home delivery beer and beverages,Restaurants",Chicago,"Seafood,Take Out Restaurants",41.735584,-87.670425,J & J Fish,"South Side, Gresham",60620
1400 E 47th St,"Seafood Restaurant,Seafood Restaurants,Fast Food Restaurant,Seafood Restaurant and Fast Food Restaurant,Restaurants",Chicago,"Seafood Restaurants,Seafood",41.8097,-87.5925,J & J Fish,"Bronzeville, North Kenwood, South Side",60653
10943 S Western Ave,"Restaurant,American Restaurants,Seafood Restaurants,Seafood restaurants,Seafood,fast food restaurant,Take Out Restaurants,Chicken Restaurants,Spare rib restaurants,Chicken restaurants,Restaurants",Chicago,"Seafood Restaurants,Seafood",41.694301,-87.680989,J and J Fish and Chicken Co,"Far South Chicago, West Morgan Park,Beverly/Morgan Park",60643
1326 W Morse Avenue,"Pizza,American Restaurants,Caterers,Fast Food Restaurants,Take Out Restaurants,Restaurants,Italian Restaurants",Chicago,"Take Out,Caterers,Italian,American,Fast Food Restaurants,Take Out Restaurants,Fast Food,European,Restaurants,Italian Restaurants,Pizza,American Restaurants,Continental",42.00826,-87.66484,J B Alberto's Pizza,"North Side,Rogers Park",60626
1206 W 51st St,"Restaurant,Greek Restaurants,Turkish restaurants,Mediterranean Restaurants,Fast Food Restaurants,Armenian restaurants,Greek restaurants,Restaurants",Chicago,"Greek,Greek Restaurants",41.80169,-87.6554,J B Gyros,"Back of the Yards, Southwest Side",60609
1861 W 87th Street,"Seafood Restaurants,Seafood,Fast Food Restaurants,Take Out Restaurants,Restaurants",Chicago,"Take Out,Seafood Restaurants,Seafood,Fast Food Restaurants,Take Out Restaurants,Fast Food,Restaurants",41.73561,-87.67005,J J Fish,"South Side,Gresham",60620
1116 S Kedzie Ave,"Restaurant,Seafood,Fast Food,food,Restaurants",Chicago,"Seafood,Fast Food,Chinese,Chicken",41.867732,-87.705987,Jacks Fish Chicken N More,Lawndale,60612
100 W 111th St,"Sandwich Place and Fast Food Restaurant,Chicken Wings,Sandwich Place and Fast Food Restaurant Roseland,Fast Food Restaurant,Barbecue Restaurants,Catering,Sandwich Place,Restaurants,Sandwich Shops",Chicago,"Hamburgers,Restaurants",41.692745,-87.626237,Jacks Wings and Sandwiches,"Roseland, Far Southeast Side",60628
5415 S Pulaski Road,"Fast Food Restaurants,Hamburgers and Hot Dogs,Restaurants",Chicago,"American,Burgers,Hot Dogs,Fast Food Restaurants,Fast Food,Hamburgers and Hot Dogs,Restaurants",41.79452,-87.7228,Jacky's Hot Dogs,"Southwest Side,West Elsdon",60632
1781 N Clybourn Avenue,"Mexican Restaurants,Family Style Restaurants,Fast Food Restaurants,Latin American Restaurants,Restaurants",Chicago,"Mexican Restaurants,Family Style Restaurants,Fast Food Restaurants,Latin American Restaurants,Restaurants,Family Style,Mexican,Fast Food,Latin American",41.91361,-87.65288,Jaimito's Burritos,"DePaul,North Side,Ranch Triangle",60614
9900 S Western Avenue,"Fast Food Restaurants,American Restaurants,Hamburgers and Hot Dogs,Restaurants",Chicago,"Fast Food Restaurants,American Restaurants,Hamburgers and Hot Dogs,Restaurants,Burgers,American,Hot Dogs,Fast Food",41.71347,-87.68225,Janson's Drive In,"Far South Chicago,Beverly,West Beverly",60643
1030 N Clark Street,"Sandwich Shops,Fast Food Restaurants",Chicago,"Sandwich Shops,Fast Food Restaurants,Sandwiches,Fast Food",41.90134,-87.6318,Jimmy John's,"Central Chicago,Near North Side",60610
46 E Chicago Avenue,"Sandwich Shops,Fast Food Restaurants",Chicago,"Sandwich Shops,Fast Food Restaurants,Sandwiches,Fast Food",41.89679,-87.62646,Jimmy John's,"Central Chicago,Near North Side",60611
216 W Washington Street,"Sandwich Shops,Fast Food Restaurants",Chicago,"Sandwich Shops,Fast Food Restaurants,Sandwiches,Fast Food",41.88332,-87.63467,Jimmy John's,"The Loop,Central Chicago",60606
6 E Madison Street,"Auto Transporting,Fast Food Restaurants,Automotive,Sandwich Shops",Chicago,"Sandwich Shops,Fast Food Restaurants,Sandwiches,Fast Food",41.88212,-87.62762,Jimmy John's,"Central Chicago,The Loop",60602
974 W 35th Place,"Sandwich Shops,Fast Food Restaurants",Chicago,"Sandwich Shops,Fast Food Restaurants,Sandwiches,Fast Food",41.82989,-87.65055,Jimmy John's,"Southwest Side,Bridgeport",60609
4021 N Milwaukee Avenue,"Sandwich Shops,Fast Food Restaurants",Chicago,"Sandwich Shops,Fast Food Restaurants,Sandwiches,Fast Food",41.95396,-87.74811,Jimmy John's,"Portage Park,Northwest Side",60641
6153 N Broadway Street,"Sandwich Shops,Fast Food Restaurants",Chicago,"Sandwich Shops,Fast Food Restaurants,Sandwiches,Fast Food",41.9938,-87.66004,Jimmy John's,"North Side,Edgewater",60660
3234 W Foster Avenue,"Sandwich Shops,Fast Food Restaurants",Chicago,"Sandwich Shops,Fast Food Restaurants,Sandwiches,Fast Food",41.9758,-87.71015,Jimmy John's,"Northwest Side,North Park",60625
205 W Monroe St Ste 2,"Restaurant,Fast Food Restaurants,Restaurants,Sandwich Shops",Chicago,"Sandwich Shops,Fast Food Restaurants,Sandwiches,Fast Food",41.88038,-87.63411,Jimmy Johns,"Central Chicago,The Loop",60606
119 E 75th Street,"Hamburgers and Hot Dogs,American Restaurants,Fast Food Restaurants,Restaurants",Chicago,"Hamburgers and Hot Dogs,American Restaurants,Fast Food Restaurants,Restaurants,Burgers,American,Hot Dogs,Fast Food",41.75808,-87.62046,Jimmy's Famous Burgers,"South Side,Chatham",60619
4000 W Grand Avenue,"Fast Food Restaurants,American Restaurants,Caterers,Hamburgers and Hot Dogs,Hot Dog Stands and Restaurants,Restaurants,Take Out Restaurants",Chicago,"Fast Food Restaurants,American Restaurants,Caterers,Hamburgers and Hot Dogs,Hot Dog Stands and Restaurants,Restaurants,Take Out Restaurants,Burgers,American,Take Out,Hot Dogs,Fast Food",41.90661,-87.72669,Jimmy's Red Hots,"West Humboldt Park,Northwest Side,Humboldt Park",60651
6814 S Stony Island Ave,"Fast Food Restaurant and Fried Chicken Joint Grand Crossing,Fried Chicken Joint,Fast Food Restaurant",Chicago,,41.771055,-87.586547,JJ Fish,"South Shore, South Side",60649
26 E Adams St,"Restaurant,Fast Food Restaurants,Chicken Restaurants,Restaurants",Chicago,"Seafood,Chicken Restaurants",41.879535,-87.626738,JJ Fish and Chicken,"Central Chicago, The Loop",60603
2518 E 79th St,"Greek Restaurants,Turkish restaurants,Mediterranean Restaurants,Fast Food Restaurants,Armenian restaurants,Greek restaurants,Restaurants",Chicago,"Greek Restaurants,Fast Food Restaurants,Mediterranean Restaurants,Restaurants,Mediterranean,Greek,Fast Food,European,Continental",41.75184,-87.56302,Joji Gyros,"Far South Chicago,South Shore,Far South Chicago, South Shore",60649
1234 N Halsted Street,"Indian Restaurants,Fast Food Restaurants,Restaurants",Chicago,"Seafood,Indian,Fast Food Restaurants,Indian Curry,Indian Restaurants,Restaurants",41.9045,-87.64823,Kaybee's Indian Flavor,"Central Chicago,Goose Island",60642
748 W Diversey Parkway,"Fast Food Restaurants,Chicken Restaurants,Restaurants,Take Out Restaurants",Chicago,"Fast Food Restaurants,Chicken Restaurants,Restaurants,Take Out Restaurants,Chicken,Take Out,Fast Food",41.93278,-87.64801,KFC,"Lincoln Park,North Side,Lake View East,Lakeview,Park West",60614
4200 W 55th Street,"Fast Food Restaurants,Chicken Restaurants,Restaurants,Take Out Restaurants",Chicago,"Fast Food Restaurants,Chicken Restaurants,Restaurants,Take Out Restaurants,Chicken,Fast Food",41.79343,-87.72823,Kfc,"West Elsdon,Southwest Side",60632
8307 S South Chicago Avenue,"Fast Food Restaurants,Chicken Restaurants,Restaurants,Take Out Restaurants",Chicago,"Fast Food Restaurants,Chicken Restaurants,Restaurants,Take Out Restaurants,Chicken,Fast Food",41.74409,-87.57459,Kfc,"Far South Chicago,South Chicago",60617
1914 W 79th Street,"Fast Food Restaurants,Chicken Restaurants,Restaurants,Take Out Restaurants",Chicago,"Fast Food Restaurants,Chicken Restaurants,Restaurants,Take Out Restaurants,Chicken,Fast Food",41.75049,-87.67102,Kfc,"South Side,Gresham",60620
S Indianapolis Avenue,"Fast Food Restaurants,Chicken Restaurants,Restaurants,Take Out Restaurants",Chicago,"Fast Food Restaurants,Chicken Restaurants,Restaurants,Take Out Restaurants,Chicken,Fast Food",41.70312,-87.52542,Kfc,"Far South Chicago,East Side",60617
6732 N Western Avenue,"Fast Food Restaurants,Take Out Restaurants,Chicken Restaurants,Restaurants",Chicago,"Fast Food Restaurants,Take Out Restaurants,Fast Food,Chicken,Chicken Restaurants,Restaurants",42.00419,-87.69042,Kfc,"West Ridge,North Side",60645
5233 N Milwaukee Avenue,"Greek Restaurants,Caterers,Fast Food Restaurants,Hamburgers and Hot Dogs,Hot Dog Stands and Restaurants,Mediterranean Restaurants,Restaurants",Chicago,"Greek Restaurants,Caterers,Fast Food Restaurants,Hamburgers and Hot Dogs,Hot Dog Stands and Restaurants,Mediterranean Restaurants,Restaurants,Burgers,Mediterranean,Greek,American,Hot Dogs,Fast Food",41.97553,-87.76721,King's Gyros,"Northwest Side,Jefferson Park",60630
2237 W 95th St,"Restaurant,Caribbean Restaurant and Fast Food Restaurant,Chicken Restaurants,Caribbean Restaurant and Fast Food Restaurant Beverly,Restaurants",Chicago,Chicken Restaurants,41.720902,-87.678683,Kingston's Jerk Chicken,"Far South Chicago, Beverly",60643
2057 E 95th Street,"Take Out Restaurants,Chinese Restaurants,Fast Food Restaurants,Restaurants",Chicago,"Take Out Restaurants,Chinese Restaurants,Fast Food Restaurants,Restaurants,Asian,Take Out,Fast Food,Chinese",41.72242,-87.57321,Kwei Iin Carry-Out,"Jeffrey Manor,South Deering,Far South Chicago",60617
3632 N Pulaski Road,"Wedding Reception Locations and Services,Take Out Restaurants,Fast Food Restaurants,Banquet Halls and Reception Facilities,Family Style Restaurants,Restaurants,Italian Restaurants,Pizza,American Restaurants,Seafood Restaurants,Cocktail Lounges,Bar and Grills,Sandwich Shops,Bars",Chicago,"Wedding Reception Locations and Services,Take Out,Italian,American,Seafood,Take Out Restaurants,Fast Food Restaurants,Fast Food,Banquet Halls and Reception Facilities,Family Style Restaurants,European,Restaurants,Italian Restaurants,Pizza,Family Style,American Restaurants,Seafood Restaurants,Cocktail Lounges,Bar and Grills,Continental,Sandwiches,Sandwich Shops,Bars",41.94783,-87.72776,Lavilla Restaurant Pizzeria,"The Villa,Northwest Side,Old Irving Park",60641
2120 S Canal Street,"American Restaurants,Caterers,Seafood Restaurants,Take Out Restaurants,Fast Food Restaurants,Fish and Seafood Markets,Restaurants",Chicago,"American Restaurants,Take Out,Caterers,Seafood Restaurants,American,Seafood,Take Out Restaurants,Fast Food Restaurants,Fast Food,Fish and Seafood Markets,Restaurants",41.85407,-87.63891,Lawrence's Fisheries Inc,"Armour Square,Southwest Side,Chinatown",60616
3135 W Addison St,"Pizza,Carry-out food,Restaurant,Take Out Restaurants,Fast Food,Pizza Place,Internet and online advertising,Restaurants",Chicago,"Pizza,Take Out,Wings,Take Out Restaurants,Fast Food,Salads,Soups,Pasta,Restaurants",41.946468,-87.70682,Little Caesars Pizza,"Avondale,Northwest Side,Irving Park,Northwest Side, Irving Park",60618
7001 N Clark St,"Pizza,Carry-out food,Restaurant,Breakfast & Brunch,Fast Food,Take Out Restaurants,Pizza Place,Internet and online advertising,Restaurants",Chicago,"Pizza,Wings,Breakfast and Brunch,Fast Food,Take Out Restaurants,Salads,Soups,Pasta,Burgers / Hot Dogs",42.00915,-87.6739,Little Caesars Pizza,"North Side, Rogers Park",60626
6928 S Pulaski Rd,"Pizza,Carry-out food,Restaurant,Take Out Restaurants,Fast Food,Pizza Place,Carry Out,Internet and online advertising,Restaurants",Chicago,"Pizza,Take Out,Wings,Take Out Restaurants,Fast Food,Salads,Soups,Pasta,Restaurants",41.767,-87.7223,Little Caesars Pizza,"Southwest Side,West Lawn",60629
1406 W 47th St,"Pizza,Carry-out food,Restaurant,Fast Food,Take Out Restaurants,Pizza Place Back of the Yards,Pizza Place,Internet and online advertising,Restaurants",Chicago,"Fast Food,Pizza,Take Out Restaurants",41.809044,-87.660697,Little Caesars Pizza,"Back of the Yards, Southwest Side",60609
3225 W 47th Pl,"Pizza,Carry-out food,Restaurant,Pizza Place Brighton Park,Take Out Restaurants,Fast Food,Pizza Place,Internet and online advertising,Restaurants",Chicago,"Pizza,Take Out,Wings,Take Out Restaurants,Fast Food,Salads,Soups,Pasta,Restaurants",41.80674,-87.70529,Little Caesars Pizza,"Southwest Side,Brighton Park,Brighton Park, Southwest Side",60632
7902 S Exchange Ave,"Pizza,Carry-out food,Restaurant,Pizza Place South Chicago,Take Out Restaurants,Fast Food,Pizza Place,Internet and online advertising,Restaurants",Chicago,"Pizza,Restaurants,Take Out Restaurants,Take Out,Fast Food",41.75165,-87.55296,Little Caesars Pizza,"Far South Chicago,South Chicago",60617
5608 W Irving Park Rd,"Pizza,Carry-out food,Restaurant,Take Out Restaurants,Fast Food,Pizza Place,Internet and online advertising,Restaurants",Chicago,"Pizza,Take Out Restaurants,Restaurants,Take Out,Fast Food",41.95328,-87.76748,Little Caesars Pizza,"Northwest Side,Portage Park",60634
2833 N Narragansett Ave,"Pizza,Restaurant,Carry-out food,Take Out Restaurants,Fast Food,Internet and online advertising,Restaurants",Chicago,"Pizza,Take Out Restaurants,Restaurants,Take Out,Fast Food",41.93198,-87.78536,Little Caesars Pizza,"Northwest Side,Montclare,Belmont Central",60634
2601 W Cermak Rd,"Pizza,Carry-out food,Restaurant,Take Out Restaurants,Fast Food,Pizza Place,Internet and online advertising,Restaurants",Chicago,"Pizza,Take Out Restaurants,Restaurants,Take Out,Fast Food",41.8517,-87.69081,Little Caesars Pizza,"West Side,Little Village",60608
5640 W Roosevelt Rd,"Pizza,Carry-out food,Restaurant,Take Out Restaurants,Fast Food,Pizza Place,Internet and online advertising,Restaurants",Chicago,"Pizza,Restaurants,Take Out Restaurants,Take Out,Fast Food",41.86563,-87.76626,Little Caesars Pizza,"Lawndale,West Side,The Island",60644
1600 W Marquette Road,"Fast Food Restaurants,Restaurants",Chicago,"Fast Food Restaurants,Fast Food,Restaurants",41.7722,-87.66402,Long John Silver's,"South Side,West Englewood",60636
6034 W North Ave,"Restaurant,Take Out,Carry-out food,Chain Restaurant,Seafood Restaurants,Seafood restaurants,Crabs and crab houses,Seafood,Fast Food Restaurants,Restaurants",Chicago,"Seafood,Restaurants,Fast Food Restaurants,Fast Food,Chain Restaurant",41.90955,-87.77661,Long John Silver's,"Galewood,Northwest Side",60639
3551 W 26th Street,"Take Out Restaurants,Dessert Restaurants,Fast Food Restaurants,Restaurant Delivery Service,Restaurants",Chicago,"Take Out Restaurants,Dessert Restaurants,Fast Food Restaurants,Restaurant Delivery Service,Restaurants,Delivery,Take Out,Fast Food,Dessert",41.84413,-87.71436,Los Mangos Neveria Y Fruteria,"West Side,Little Village",60623
3400 W 31st Street,"Mexican Restaurants,Take Out Restaurants,Latin American Restaurants,Fast Food Restaurants,Restaurants",Chicago,"Take Out,Mexican Restaurants,Mexican,Latin American,Take Out Restaurants,Latin American Restaurants,Fast Food Restaurants,Fast Food,Restaurants",41.83725,-87.70998,Los Olivos,"West Side,Little Village",60623
5700 S Cicero Avenue,"Pizza,Fast Food Restaurants,Italian Restaurants,Restaurants",Chicago,"Pizza,Fast Food Restaurants,Italian Restaurants,Restaurants,Fast Food,Italian,European,Continental",41.78707,-87.74156,Luigi Stefani Pizzeria,"Midway Airport,Southwest Side",60638
215 W Jackson Boulevard,"Italian Restaurants,American Restaurants,Breakfast Brunch and Lunch Restaurants,,Caterers,Fast Food Restaurants,Pizza,Restaurants,Steak Houses",Chicago,"Italian,Caterers,Breakfast,American,Burgers,Breakfast Brunch and Lunch Restaurants,,Fast Food Restaurants,Fast Food,Desserts,Brunch and Lunch,European,Restaurants,Italian Restaurants,Pizza,American Restaurants,Steak Houses,Continental,Pasta,Chicken,Steakhouse,Sandwiches",41.87804,-87.63432,Luke's Italian Beef,"Central Chicago,The Loop",60606
2660 E 79th St Ste A,"Steak Houses,Fast Food Restaurants,Restaurants",Chicago,"Steak Houses,Fast Food Restaurants,Restaurants,Fast Food,Steakhouse",41.7519,-87.55877,M and Y Little Babas Fast Food,"Far South Chicago,South Shore",60649
5458 S Halsted St,"Greek Restaurants,Mediterranean Restaurants,Fast Food Restaurants,Restaurants,Sandwich Shops",Chicago,"Greek Restaurants,Greek",41.7945,-87.6453,Maggie Gyros,"Southwest Side, Back of the Yards",60609
2353 W 111th Street,"Fast Food Restaurants,American Restaurants,Hamburgers and Hot Dogs,Restaurants",Chicago,"Fast Food Restaurants,American Restaurants,Hamburgers and Hot Dogs,Restaurants",41.69144,-87.68086,Manzo's Burger,"Morgan Park,Far South Chicago",60643
20 E Adams Street,"Fast Food Restaurants,American Restaurants,Hamburgers and Hot Dogs,Hot Dog Stands and Restaurants,Restaurants,Take Out Restaurants",Chicago,"Fast Food Restaurants,American Restaurants,Hamburgers and Hot Dogs,Hot Dog Stands and Restaurants,Restaurants,Take Out Restaurants,Burgers,American,Take Out,Hot Dogs,Fast Food",41.87972,-87.62688,Max's Take Out,"The Loop,Central Chicago",60603
8637 S Ashland Avenue,"Take Out Restaurants,American Restaurants,Fast Food Restaurants,Restaurants",Chicago,"Take Out Restaurants,American Restaurants,Fast Food Restaurants,Restaurants,American,Take Out,Fast Food",41.73649,-87.66269,Maxwell's Charcoal Grill,"South Side,Gresham",60620
186 W Adams St,"Family Style,Restaurant,Burgers,Fast Food,Chicago Restaurants,Restaurants",Chicago,"Family Style,Hamburgers , New American , Traditional American , Fast Food,Quick Bites,Burgers,Fast Food",41.87939,-87.63332,McDonald's,Chicago,60603
3540 N Harlem Ave,"Ice Cream Parlors,Breakfast,Burgers,Fast Food,Fast Food Restaurants,Take Out Restaurants,Restaurants,Frozen Yogurt Shops,Family Style,Restaurant,Fast Food Restaurant,Coffeehouses,Salads,Hamburgers and Hot Dogs,Hamburgers,Sandwich Shops",Chicago,"Fast Food,Burgers,Family Style,Fast Food Restaurants,Hamburgers and Hot Dogs,Restaurants,Take Out Restaurants,Yogurt,American,Sandwiches,Hot Dogs,Ice Cream,Healthy,Diner,Cafe,Omelets",41.9444,-87.8073,McDonald's,"Northwest Side,Belmont Heights",60634
1443 E 87th St,"Ice Cream Parlors,Carry-out food,chain,Breakfast,Hot dog restaurants,food restaurant,Burgers,Hamburger restaurants,Fast Food,retail,Restaurants,Family Style,Restaurant,fast,Fast Food Restaurant,Coffeehouses,Salads,Hamburgers,Sandwich Shops",Chicago,"Fast Food,Burgers,Family Style,Traditional American , New American , Fast Food , Hamburgers",41.7366,-87.5888,McDonald's,"Avalon Park, Far Southeast Side",60619
4550 N Cumberland Ave,"Carry-out food,Hot dog restaurants,Hamburger restaurants,Fast Food,Fast Food Restaurants,Take Out Restaurants,Internet and online services,Restaurants,Restaurant,Burger Joint,Fast Food Restaurant,Fast food restaurants,Hamburgers and Hot Dogs",Chicago,"Ice Cream,Cafe,American,Fries,Shakes,Burgers,Fast Food,Fast Food Restaurants,Take Out Restaurants,Yogurt,Restaurants,Omelets,Hot Dogs,Diner,Salads,Hamburgers and Hot Dogs,Sandwiches,Hamburgers,Healthy",41.96248,-87.83711,McDonald's,Schorsch Forest View,60656
29 E 87th Street,"Fast Food Restaurants,Hamburgers and Hot Dogs,Restaurants,Take Out Restaurants",Chicago,"Fast Food Restaurants,Hamburgers and Hot Dogs,Restaurants,Take Out Restaurants,Yogurt,Burgers,American,Sandwiches,Fast Food,Hot Dogs,Healthy,Diner,Ice Cream,Cafe,Omelets",41.73625,-87.62294,McDonald's,"West Chesterfield,South Side",60619
2754 N Narragansett Ave,"Carry-out food,Hot dog restaurants,Burgers,American restaurants,Hamburger restaurants,Fast Food,Fast Food Restaurants,Take Out Restaurants,Restaurants,Family Style,Restaurant,Fast Food Restaurant,Fast food restaurants,Hamburgers and Hot Dogs",Chicago,"Ice Cream,Cafe,American,Fries,Shakes,Burgers,Fast Food,Fast Food Restaurants,Take Out Restaurants,Yogurt,Restaurants,Family Style,Omelets,Hot Dogs,Diner,Salads,Hamburgers and Hot Dogs,Sandwiches,Hamburgers,Healthy",41.930461,-87.785746,McDonald's,"Northwest Side,Montclare",60639
9560 S Halsted St,"Carry-out food,Hot dog restaurants,Breakfast & Brunch Restaurants,Hamburger restaurants,Fast Food,Fast Food Restaurants,Take Out Restaurants,Karaoke,Cafes,Restaurants,Restaurant,Ice Cream & Frozen Yogurt Shops,Fast Food Restaurant,Hamburgers and Hot Dogs",Chicago,"Ice Cream,Cafe,American,Fries,Shakes,Burgers,Fast Food,Fast Food Restaurants,Take Out Restaurants,Yogurt,Restaurants,Omelets,Hot Dogs,Diner,Salads,Hamburgers and Hot Dogs,Sandwiches,Hamburgers,Healthy",41.719635,-87.643212,McDonald's,"Longwood Manor,South Side",60628
2317 N Cicero Avenue,"Fast Food Restaurants,Hamburgers and Hot Dogs,Restaurants,Take Out Restaurants",Chicago,"Fast Food Restaurants,Hamburgers and Hot Dogs,Restaurants,Take Out Restaurants,Yogurt,Burgers,American,Sandwiches,Fast Food,Hot Dogs,Healthy,Diner,Ice Cream,Cafe,Omelets",41.923,-87.74588,McDonald's,"Northwest Side,Hermosa",60639
3540 N Harlem Avenue,"Fast Food Restaurants,Hamburgers and Hot Dogs,Restaurants,Take Out Restaurants",Chicago,"Fast Food Restaurants,Hamburgers and Hot Dogs,Restaurants,Take Out Restaurants,Yogurt,Burgers,American,Sandwiches,Fast Food,Hot Dogs,Healthy,Diner,Ice Cream,Cafe,Omelets",41.94465,-87.80706,McDonald's,"Northwest Side,Belmont Heights",60634
2754 N Narragansett Avenue,"Fast Food Restaurants,Hamburgers and Hot Dogs,Restaurants,Take Out Restaurants",Chicago,"Fast Food Restaurants,Hamburgers and Hot Dogs,Restaurants,Take Out Restaurants,Yogurt,Burgers,American,Sandwiches,Fast Food,Hot Dogs,Healthy,Diner,Ice Cream,Cafe,Omelets",41.93017,-87.78581,McDonald's,"Northwest Side,Montclare",60639
4550 N Cumberland Avenue,"Fast Food Restaurants,Hamburgers and Hot Dogs,Restaurants,Take Out Restaurants",Chicago,"Fast Food Restaurants,Hamburgers and Hot Dogs,Restaurants,Take Out Restaurants,Yogurt,Burgers,American,Sandwiches,Fast Food,Hot Dogs,Healthy,Diner,Ice Cream,Cafe,Omelets",41.96265,-87.83715,McDonald's,Schorsch Forest View,60656
2317 N Cicero Ave,"Fast Food Restaurant Hermosa,Restaurant,Fast Food Restaurant,Fast Food Restaurants,Take Out Restaurants,Hamburgers and Hot Dogs,Restaurants",Chicago,"Fast Food Restaurants,Hamburgers and Hot Dogs,Restaurants,Take Out Restaurants,Yogurt,Burgers,American,Sandwiches,Hot Dogs,Fast Food,Ice Cream,Healthy,Diner,Cafe,Omelets",41.922819,-87.745914,McDonalds,"Northwest Side,Hermosa",60639
6659 W Archer Avenue,"American Restaurants,Caterers,Takeout,Restaurant Delivery Service,Take Out Restaurants,Fast Food Restaurants,Restaurants",Chicago,"American Restaurants,Take Out,Caterers,American,Restaurant Delivery Service,Take Out Restaurants,Fast Food Restaurants,Fast Food,Delivery,Restaurants",41.792027,-87.788376,Mini Hut Inc,"Southwest Side,Garfield Ridge",60638
3518 N Clark St,"Mexican Restaurant,Restaurant,Bar,Mexican,Bar and Mexican Restaurant,Bar and Mexican Restaurant Wrigleyville,Fast Food,Restaurants",Chicago,"Mexican,Bar,Fast Food,Pub,Southwestern",41.946168,-87.655835,Moe's Cantina,Chicago,60657
1953 N Clybourn Ave,"Restaurant,Take Out,Burrito Place, Taco Place, and Mexican Restaurant,Mexican Restaurants,Caterers,Take Out Restaurants,Fast Food Restaurants,Southwestern Restaurants,Catering,Restaurants",Chicago,"Mexican Restaurants,Caterers,Restaurants,Take Out Restaurants,Fast Food Restaurants,Mexican,Take Out,Fast Food,Latin American",41.917,-87.6573,Moe's Southwest Grill,"DePaul,North Side,Ranch Triangle",60614
3649 W Division St,"Greek Restaurants,Fast Food Restaurant,Take Out Restaurants,Fast Food Restaurants,Restaurants",Chicago,"Mediterranean,Take Out,Greek Restaurants,Continental,Take Out Restaurants,Fast Food Restaurants,Fast Food,European,Greek,Restaurants",41.9024,-87.7185,Mr Gyros,"Northwest Side,Humboldt Park",60651
10509 S Western Ave,"Restaurant,Caterers,Delicatessens,American,Fast Food Restaurant,Sandwich Place, Fast Food Restaurant, and Restaurant,wich Place,Sandwich Place, Fast Food Restaurant, and Restaurant Beverly,Restaurants,Sandwich Shops",Chicago,"American,Sandwich Shops",41.70256,-87.68124,Mr Submarine,"Far South Chicago, Beverly",60643
2900 W 63rd Street,"Sandwich Shops,Caterers,Delicatessens,Fast Food Restaurants,Restaurants",Chicago,"Sandwich Shops,Caterers,Delicatessens,Fast Food Restaurants,Restaurants",41.77936,-87.69601,Mr. Submarine,"South Side,Chicago Lawn",60629
309 W Washington Street,"Fast Food Restaurants,Caterers,Mediterranean Restaurants,Middle Eastern Restaurants,Restaurants",Chicago,"Fast Food Restaurants,Caterers,Mediterranean Restaurants,Middle Eastern Restaurants,Restaurants",41.88295,-87.63566,Naf Naf Grill,"Central Chicago,The Loop",60606
326 N Michigan Avenue,"Mediterranean Restaurants,Bar and Grills,Caterers,Fast Food Restaurants,Middle Eastern Restaurants,Restaurants",Chicago,"Mediterranean Restaurants,Bar and Grills,Caterers,Fast Food Restaurants,Middle Eastern Restaurants,Restaurants,Mediterranean,Fast Food,Middle Eastern",41.88758,-87.62498,Naf Naf Grill,"Central Chicago,The Loop",60601
5729 N Northwest Hwy,"Hot Dog Joint,Restaurant,Burger Joint,Fast Food Restaurant,Fast Food Restaurants,Restaurants",Chicago,"Fast Food Restaurants,Restaurants",41.985991,-87.787634,Natalies Drive In,"Northwest Side,Norwood Park,Norwood Park East,Old Norwood Park, Northwest Side, Norwood Park",60646
5238 N Nagle Ave,"Restaurant,Greek Restaurant,Greek Restaurants,Turkish restaurants,Mediterranean Restaurants,Fast Food Restaurants,Armenian restaurants,Greek restaurants,Greek,Restaurants",Chicago,"Mediterranean,Greek Restaurants,Mediterranean Restaurants,Continental,Fast Food Restaurants,Fast Food,European,Greek,Restaurants",41.9766,-87.7878,Nick's Gyros,"Union Ridge,Northwest Side,Norwood Park",60630
2011 W 63rd St,"Carry-out food,Greek Restaurants,American restaurants,Take Out Restaurants,Fast Food Restaurants,Restaurants,Pizza,Burger Joint,Restaurant,Turkish restaurants,Mediterranean Restaurants,Fast Food Restaurant,Armenian restaurants,Hamburgers and Hot Dogs,Greek restaurants,Greek",Chicago,"Take Out,American,Greek Restaurants,Burgers,Take Out Restaurants,Fast Food Restaurants,Fast Food,European,Restaurants,Pizza,Mediterranean,Mediterranean Restaurants,Continental,Hot Dogs,Hamburgers and Hot Dogs,Greek",41.7792,-87.6748,Nick's Gyros,"South Side,West Englewood,South Side, West Englewood",60636
7005 S Stony Island Ave,"Greek Restaurants,Turkish restaurants,American restaurants,Fast Food Restaurants,Armenian restaurants,Greek restaurants,Restaurants",Chicago,Fast Food Restaurants,41.767742,-87.58596,Nickeys Gyros Inc,"Far South Chicago, South Shore",60649
7858 S Ashland Ave,"Pizza,Greek Restaurants,Turkish restaurants,Mediterranean Restaurants,Fast Food Restaurants,Armenian restaurants,Hamburgers and Hot Dogs,Greek restaurants,Restaurants",Chicago,"Greek Restaurants,Fast Food Restaurants,Pizza,Mediterranean Restaurants,Hamburgers and Hot Dogs,Restaurants,Burgers,Mediterranean,Greek,American,Hot Dogs,Fast Food,European,Continental",41.75049,-87.66359,Nicks Gyros,"South Side,Gresham",60620
3501 S Western Blvd,"Hot Dog Joint,Burger Joint,Restaurant,Fast Food Restaurant,Take Out Restaurants,Hot Dog Joint, Fast Food Restaurant, and Burger Joint McKinley Park,Restaurants",Chicago,Take Out Restaurants,41.83019,-87.68403,Nicky's Carry Out,"Southwest Side, Brighton Park",60609
5231 S Woodlawn Avenue,"Chinese Restaurants,Asian Restaurants,Caterers,Fast Food Restaurants,Restaurant Delivery Service,Restaurants,Take Out Restaurants",Chicago,"Chinese Restaurants,Asian Restaurants,Caterers,Fast Food Restaurants,Restaurant Delivery Service,Restaurants,Take Out Restaurants,Asian,Delivery,Take Out,Fast Food,Chinese",41.80028,-87.59658,Nicky's Chinese Food,"Far South Chicago,Hyde Park",60615
7829 S Western Ave,"Carry-out food,Take Out Restaurants,Fast Food Restaurants,Family Style Restaurants,Restaurants",Chicago,Family Style Restaurants,41.751152,-87.68288,Nicky's Restaurant,"Wrightwood, Gresham, South Side",60620
3559 E 106th Street,"Greek Restaurants,Mediterranean Restaurants,Fast Food Restaurants,Restaurants",Chicago,"Mediterranean,Greek Restaurants,Mediterranean Restaurants,Continental,Fast Food Restaurants,Fast Food,European,Greek,Restaurants",41.70247,-87.53665,Nicky'Z Gyros,"East Side,Far South Chicago",60617
4601 S Pulaski Rd,"Hot Dog Joint,Hamburgers & Hot Dogs,American Restaurants,Take Out,Seafood Restaurants,Mediterranean Restaurants,Fast Food Restaurant,Take Out Restaurants,Fast Food Restaurants,Hot Dog Joint and Fast Food Restaurant Archer Heights,Restaurants,Sandwich Shops",Chicago,Fast Food Restaurants,41.809608,-87.723462,Nickys Hot Dogs,"Southwest Side, Archer Heights",60632
3559 E 106th St,"Greek Restaurants,Mediterranean Restaurants,Fast Food Restaurants,Restaurants",Chicago,"Fast Food Restaurants,Greek",41.7025,-87.5367,Nizky'z Gyros,"Far South Chicago, East Side",60617
7109 N Clark Street,"Italian Restaurants,Caterers,Fast Food Restaurants,Pizza,Restaurants,Take Out Restaurants",Chicago,"Italian Restaurants,Caterers,Fast Food Restaurants,Pizza,Restaurants,Take Out Restaurants,Take Out,Fast Food,Italian,European,Continental",42.01181,-87.67443,Nueva Italy Pizzeria,"North Side,Rogers Park",60626
205 W Monroe Street,"Mediterranean Restaurants,Bar and Grills,Caterers,Delicatessens,Fast Food Restaurants,Greek Restaurants,Health Food Restaurants,Middle Eastern Restaurants,Restaurant Delivery Service,Restaurants,Sandwich Shops,Take Out Restaurants,Vegan Restaurants,Vegetarian Restaurants",Chicago,"Mediterranean Restaurants,Bar and Grills,Caterers,Delicatessens,Fast Food Restaurants,Greek Restaurants,Health Food Restaurants,Middle Eastern Restaurants,Restaurant Delivery Service,Restaurants,Sandwich Shops,Take Out Restaurants,Vegan Restaurants,Vegetarian Restaurants",41.88038,-87.63411,Olive Mediterranean Grill,"Central Chicago,The Loop",60606
4658 N Western Ave,"Carry-out food,Caterers,Catering Companies,Soup Restaurants,Thai Restaurants,Take Out Restaurants,Fast Food Restaurants,Family Style Restaurants,Restaurants,Asian Restaurants,Restaurant,Seafood Restaurants,Food Dining,Thai restaurants,Thai,Noodle Shop Restaurants,Thai Restaurant,Catering,Food",Chicago,"Caterers,Thai Restaurants,Seafood,Take Out Restaurants,Fast Food Restaurants,Family Style Restaurants,Noodle Shop,Asian,Restaurants,Asian Restaurants,Seafood Restaurants,Soups,Thai",41.9665,-87.689,Opart Thai House Restaurant,"North Side,Ravenswood,North Side, Ravenswood",60625
515 S State St,"Asian Restaurants,Restaurant,Take Out,Carry-out food,Chinese Restaurants,Chicago,Fast Food,Chinese,Fast Food Restaurants,Restaurants,Chinese restaurants",Chicago,"Quick Bites,Fast Food,Chinese,Asian",41.8752,-87.6271,Panda Express,south-loop-near-south,60605
110 W Monroe St,"Take Out,Chinese Restaurants,Chinese Restaurant The Loop,Fast Food,Fast Food Restaurants,Carry Out,Family-Friendly Dining,Restaurants,Mastercard Accepted,Visa Accepted,Asian Restaurants,Restaurant,Chinese Restaurant,Lunch Spot,Chinese,American Express Accepted,Catering,Discover Accepted",Chicago,"Fast Food,Chinese",41.8807,-87.6313,Panda Express,loop,60603
113 S Clinton St,"Take Out,Carry-out food,Chinese Restaurants,Chicago,Fast Food Restaurants,Restaurants,Asian Restaurants,Restaurant,Chinese Restaurant West Loop,West-side,meal - Lunch,Chinese,neighborhood - west-loop-greektown,;area - west-side,Catering,cuisine - chinese,Chinese restaurants",Chicago,Chinese,41.8802,-87.6411,Panda Express,west-loop-greektown,60661
7355 N Clark St,"Restaurant,Greek Restaurant,Greek Restaurant and Fast Food Restaurant Rogers Park,Greek Restaurants,Turkish restaurants,Mediterranean Restaurants,Greek Restaurant and Fast Food Restaurant,Fast Food Restaurant,Fast Food Restaurants,Armenian restaurants,Greek restaurants,Restaurants",Chicago,"Greek,Greek Restaurants,Fast Food Restaurants,Mediterranean Restaurants,Restaurants,Mediterranean,Fast Food,European,Continental",42.014927,-87.674914,Parkside Gyros,"North Side,Rogers Park,North Side, Rogers Park",60626
6022 N Broadway Street,"Fast Food Restaurants,American Restaurants,Hamburgers and Hot Dogs,Hot Dog Stands and Restaurants,Restaurants",Chicago,"Fast Food Restaurants,American Restaurants,Hamburgers and Hot Dogs,Hot Dog Stands and Restaurants,Restaurants,Burgers,American,Hot Dogs,Fast Food",41.99164,-87.66045,Patio Beef,"Edgewater Glen,North Side,Edgewater",60660
5700 S Cicero Ave,"Restaurant,Greek Restaurant,Greek Restaurants,Turkish restaurants,Mediterranean Restaurants,Fast Food Restaurant,Breakfast Brunch and Lunch Restaurants,,Armenian restaurants,Family Style Restaurants,Greek restaurants,Greek,Restaurants",Chicago,"Family Style,Mediterranean,Breakfast,Greek Restaurants,Mediterranean Restaurants,Continental,Breakfast Brunch and Lunch Restaurants,,Family Style Restaurants,Brunch and Lunch,European,Greek,Restaurants",41.7957,-87.7668,Pegasus On The Fly,"Midway Airport,Southwest Side",60638
759 W 69th St,"Greek Restaurants,Mediterranean Restaurants,Fast Food Restaurants,Restaurants,retail",Chicago,"Mediterranean,Greek Restaurants,Mediterranean Restaurants,Continental,Fast Food Restaurants,Fast Food,European,Greek,Restaurants",41.7688,-87.644,Philly Gyros,"South Side,Englewood,Englewood, Southwest Side,South Side, Englewood",60621
5914 W Lawrence Avenue,"Vietnamese Restaurants,Asian Restaurants,Fast Food Restaurants,Restaurants,Take Out Restaurants",Chicago,"Vietnamese Restaurants,Asian Restaurants,Fast Food Restaurants,Restaurants,Take Out Restaurants,Vietnamese,Asian,Take Out,Fast Food",41.96772,-87.77542,Pho Number One,"Jefferson Park,Northwest Side",60630
1250 S Michigan Avenue,"American Restaurants,Caterers,Greek Restaurants,Mediterranean Restaurants,Fast Food Restaurants,Health Food Restaurants,Vegetarian Restaurants,Restaurants,Middle Eastern Restaurants,Sandwich Shops",Chicago,"Caterers,Greek Restaurants,Fast Food Restaurants,Health Food Restaurants,Fast Food,Restaurants,American Restaurants,Mediterranean,Middle Eastern,Mediterranean Restaurants,Vegetarian Restaurants,Greek,Middle Eastern Restaurants,Sandwich Shops",41.86658,-87.62426,Pita Heaven Restaurant,"South Loop,Central Chicago",60605
5109 S Pulaski Road,"Pizza,Fast Food Restaurants,Take Out Restaurants,Restaurants",Chicago,"Pizza,Take Out,Fast Food Restaurants,Take Out Restaurants,Fast Food,Chicken,Restaurants",41.80035,-87.72289,Pizza Hut,"Archer Heights,Southwest Side,West Elsdon",60632
1601 N Western Avenue,"Pizza,Take Out Restaurants,Fast Food Restaurants,Family Style Restaurants,Restaurants",Chicago,"Pizza,Take Out Restaurants,Fast Food Restaurants,Chicken,Family Style Restaurants,Restaurants",41.91043,-87.68706,Pizza Hut,"Northwest Side,Bucktown",60647
2337 W Cermak Road,"Pizza,Restaurant Delivery Service,Take Out Restaurants,Fast Food Restaurants,Food Delivery Service,Chicken Restaurants,Restaurants",Chicago,"Pizza,Take Out,Restaurant Delivery Service,Take Out Restaurants,Fast Food Restaurants,Fast Food,Food Delivery Service,Chicken,Chicken Restaurants,Delivery,Restaurants",41.85196,-87.6849,Pizza Hut,"Heart of Italy,Pilsen,West Side",60608
5240 N Pulaski Road,"Pizza,Take Out Restaurants,Fast Food Restaurants,Family Style Restaurants,Restaurants",Chicago,"Pizza,Take Out Restaurants,Fast Food Restaurants,Chicken,Family Style Restaurants,Restaurants",41.97662,-87.7284,Pizza Hut,"North Park,Northwest Side",60630
4925 W North Avenue,"Pizza,Restaurant Delivery Service,Take Out Restaurants,Fast Food Restaurants,Food Delivery Service,Chicken Restaurants,Family Style Restaurants,Restaurants",Chicago,"Pizza,Restaurant Delivery Service,Take Out Restaurants,Fast Food Restaurants,Food Delivery Service,Chicken,Chicken Restaurants,Family Style Restaurants,Restaurants",41.90948,-87.74989,Pizza Hut,"North Austin,Northwest Side,Austin",60639
3045 N Pulaski Rd,"Pizza,Carry-out food,Pizza Restaurants,Restaurant delivery service,American restaurants,Take Out Restaurants,Fast Food Restaurants,Home delivery beer and beverages,Family Restaurants,Restaurants,Pizza Delivery",Chicago,"Pizza,Take Out Restaurants,Restaurants,Fast Food Restaurants",41.93663,-87.72701,Pizza Hut,"Logan Square,Northwest Side",60641
5240 N Pulaski Rd Ste A,"Carry-out food,Caterers,Restaurant delivery service,Take Out Restaurants,Fast Food Restaurants,Home delivery beer and beverages,Family Style Restaurants,Restaurants,Pizza,Barbecued poultry,Barbecue,Spare rib restaurants,Chicken restaurants",Chicago,"White Pizza,Take Out,Take Out Restaurants,Fast Food Restaurants,Fast Food,Family Style Restaurants,Desserts,Restaurants,Pizza,Family Style,Wings,Hoagies / Grinders / Subs / Gyros,Deep Skillet / Pan Pizza,French Fries / Onion Rings,Salads,Soups,Pasta,Burgers / Hot Dogs",41.97662,-87.7284,Pizza Hut,"North Park,Northwest Side",60630
3216 N Kimball Ave,"Carry-out food,Pizza Restaurants,Caterers,Restaurant delivery service,Fast Food,Take Out Restaurants,Home delivery beer and beverages,Family Style Restaurants,Restaurants,Pizza Delivery,Pizza,Restaurant,Barbecue,Pizza Place,Family Restaurants",Chicago,"White Pizza,Fast Food,Fast Food Restaurants,Desserts,Pizza,Wings,Hoagies / Grinders / Subs / Gyros,Deep Skillet / Pan Pizza,French Fries / Onion Rings,Italian Cuisine,Salads,Soups,Pasta,Burgers / Hot Dogs",41.939921,-87.712511,Pizza Hut,"Avondale, Northwest Side",60618
5320 N Broadway Street,"Pizza,Restaurant Delivery Service,Take Out Restaurants,Fast Food Restaurants,Food Delivery Service,Chicken Restaurants,Restaurants",Chicago,"Pizza,Restaurant Delivery Service,Take Out Restaurants,Fast Food Restaurants,Food Delivery Service,Chicken,Chicken Restaurants,Restaurants",41.97879,-87.66006,Pizza Hut,"North Side,Edgewater,LakewoodBalmoral",60640
4019 E 106th Street,"Pizza,Restaurant Delivery Service,Take Out Restaurants,Fast Food Restaurants,Food Delivery Service,Chicken Restaurants,Restaurants",Chicago,"Pizza,Restaurant Delivery Service,Take Out Restaurants,Fast Food Restaurants,Food Delivery Service,Chicken,Chicken Restaurants,Restaurants",41.70244,-87.52611,Pizza Hut,"East Side,Far South Chicago",60617
3009 N Clark St,"Carry-out food,Caterers,Restaurant delivery service,American restaurants,Take Out Restaurants,Fast Food Restaurants,Karaoke,Food Delivery Service,Home delivery beer and beverages,Chicken Restaurants,Restaurants,Pizza,Restaurant,Pizza Place,Barbecue Restaurants,Food & Beverage Delivery Services,Catering",Chicago,"Pizza,Take Out Restaurants,Food Delivery Service,Chicken Restaurants,Fast Food Restaurants,Restaurant Delivery Service,Restaurants,Delivery,Chicken,Take Out,Fast Food",41.93784,-87.648966,Pizza Hut,"Lakeview,North Side,Lake View East,Lakeview, North Side, Lake View East",60657
4925 W North Ave,"Carry-out food,Pizza Restaurants,Take Out,Caterers,Restaurant delivery service,Chicken Wings,Food Delivery,American restaurants,Karaoke,Take Out Restaurants,Fast Food Restaurants,Fast Food,Home delivery beer and beverages,Food Delivery Service,Chicken Restaurants,Family Style Restaurants,Restaurants,Pizza Delivery,Pizza,Restaurant,Pizza Place,Barbecue,Concession Stands",Chicago,"White Pizza,Take Out,Restaurant Delivery Service,Take Out Restaurants,Fast Food Restaurants,Fast Food,Food Delivery Service,Chicken Restaurants,Family Style Restaurants,Desserts,Restaurants,Pizza,Family Style,Wings,Hoagies / Grinders / Subs / Gyros,Deep Skillet / Pan Pizza,French Fries / Onion Rings,Salads,Soups,Chicken,Pasta,Delivery,Burgers / Hot Dogs",41.9092,-87.7496,Pizza Hut,"North Austin,Northwest Side,Austin",60639
3451 W Devon Ave,"Pizza Restaurants,Take Out,Carry-out food,Caterers,Restaurant delivery service,Fast Food,Take Out Restaurants,Fast Food Restaurants,Karaoke,Home delivery beer and beverages,Family Style Restaurants,Restaurants,Pizza Delivery,Pizza,Restaurant,Pizza Place,Concession Stands,Family Restaurants",Chicago,"Fast Food,Pizza,Restaurants,Take Out Restaurants,Family Style Restaurants,Family Style,Take Out,Fast Food Restaurants",41.997032,-87.71609,Pizza Hut,"North Park,Northwest Side,Pulaski Park,North Park, Northwest Side, Pulaski Park",60659
3009 N Clark Street,"Pizza,Restaurant Delivery Service,Take Out Restaurants,Fast Food Restaurants,Food Delivery Service,Chicken Restaurants,Restaurants",Chicago,"Pizza,Restaurant Delivery Service,Take Out Restaurants,Fast Food Restaurants,Food Delivery Service,Chicken,Chicken Restaurants,Restaurants",41.93678,-87.648,Pizza Hut,"North Side,Lakeview,Lake View East",60657
3451 W Devon Avenue,"Pizza,Take Out Restaurants,Fast Food Restaurants,Family Style Restaurants,Restaurants",Chicago,"Pizza,Take Out Restaurants,Fast Food Restaurants,Chicken,Family Style Restaurants,Restaurants",41.99722,-87.71563,Pizza Hut,"North Park,Northwest Side,Pulaski Park",60659
1225 W Fullerton Avenue,"Pizza,Restaurant Delivery Service,Take Out Restaurants,Fast Food Restaurants,Food Delivery Service,Chicken Restaurants,Restaurants",Chicago,"Pizza,Take Out,Restaurant Delivery Service,Take Out Restaurants,Fast Food Restaurants,Fast Food,Food Delivery Service,Chicken,Chicken Restaurants,Delivery,Restaurants",41.92515,-87.6599,Pizza Hut,"North Side,DePaul,Sheffield",60614
5109 S Pulaski Rd,"Carry-out food,Caterers,Restaurant delivery service,American restaurants,Fast Food,Fast Food Restaurants,Take Out Restaurants,Karaoke,Home delivery beer and beverages,Restaurants,Pizza,Restaurant,Pizza Place Archer Heights,Pizza Place",Chicago,"Fast Food,Pizza",41.800636,-87.723296,Pizza Hut,"Southwest Side, Archer Heights, West Elsdon",60632
5320 N Broadway St,"Pizza,Restaurant Delivery Service,Take Out Restaurants,Fast Food Restaurants,Food Delivery Service,Chicken Restaurants,Restaurants",Chicago,"Pizza,Take Out,Restaurant Delivery Service,Take Out Restaurants,Fast Food Restaurants,Fast Food,Food Delivery Service,Chicken,Chicken Restaurants,Delivery,Restaurants",41.97879,-87.66006,Pizza Hut,"North Side,Edgewater,LakewoodBalmoral,North Side, Edgewater",60640
2042 W 47th St,"Carry-out food,Pizza Restaurants,Take Out,Caterers,Restaurant delivery service,Karaoke,Fast Food,Take Out Restaurants,Fast Food Restaurants,Home delivery beer and beverages,Family Style Restaurants,Restaurants,Pizza Delivery,Pizza,Restaurant,Pizza Place,Barbecue,Concession Stands",Chicago,"Pizza,Fast Food,Take Out Restaurants,Chicken,Family Style Restaurants,Restaurants",41.80856,-87.67671,Pizza Hut,"Southwest Side,Back of the Yards,Back of the Yards, Southwest Side",60609
47 W 79th St,"Carry-out food,Caterers,Restaurant delivery service,Karaoke,Fast Food,Take Out Restaurants,Fast Food Restaurants,Home delivery beer and beverages,Restaurants,Pizza,Restaurant,American Restaurants,Barbecued poultry,Delivery service,Pizza Place,Barbecue,Spare rib restaurants,Chicken restaurants",Chicago,"Pizza,American Restaurants,Fast Food,Take Out Restaurants,Chicken,Restaurants",41.75084,-87.6265,Pizza Hut,"South Side,South Side, West Chatham,West Chatham",60620
10337 S Kedzie Ave,"Restaurant,Italian,Caterers,Steak Houses,Steak and chop restaurants,Fast Food Restaurants,Restaurants,Italian Restaurants",Chicago,"Italian,Italian Restaurants",41.704926,-87.70131,Pop's Italian Beef,"Far South Chicago, Mount Greenwood",60655
S Kedzie Avenue,"American Restaurants,Caterers,Steak Houses,Fast Food Restaurants,Hamburgers and Hot Dogs,Restaurants,Italian Restaurants",Chicago,"Caterers,Italian,American,Burgers,Fast Food Restaurants,Fast Food,European,Restaurants,Italian Restaurants,American Restaurants,Steak Houses,Continental,Hot Dogs,Steakhouse,Hamburgers and Hot Dogs",41.70502,-87.70123,Pop's Italian Beef,"Far South Chicago,Mount Greenwood",60655
10331 S Kedzie Ave,"Carry-out food,Take Out,Caterers,Barbecued poultry,Fast Food Restaurants,Take Out Restaurants,Barbecue,Spare rib restaurants,Chicken restaurants,Restaurants,Chicken Take Out",Chicago,Take Out Restaurants,41.705693,-87.701145,Popeye's Louisiana Kitchen,"Far South Chicago, Mount Greenwood",60655
1949 W Fullerton Ave,"Carry-out food,Fried Chicken Joint,Barbecued poultry,Fast Food Restaurant,Barbecue,Spare rib restaurants,Chicken restaurants,Restaurants,Cajun / Creole Restaurant",Chicago,Chicken Restaurants,41.9248048,-87.67759944,Popeyes Louisiana Kitchen,"Northwest Side, Bucktown",60614
4431 S Archer Ave,"Take Out,Take Out Restaurants,Fast Food Restaurants,Chicken Restaurants,Restaurants,Chicken Take Out",Chicago,Take Out Restaurants,41.812636,-87.706386,Popeyes Louisiana Kitchen,"Southwest Side, Brighton Park",60632
4604 N Broadway St,"fried chicken joint,Take Out Restaurants,Fast Food Restaurants,Chicken Restaurants,Restaurants",Chicago,Restaurants,41.96542,-87.657486,Popeyes Louisiana Kitchen,"Far North Side, Uptown,North Side, Uptown",60640
17 S Wabash Ave,"Take Out,Fried Chicken Joint,Fast Food Restaurant,Fast Food Restaurants,Chicken Restaurants,Fried Chicken Joint and Fast Food Restaurant,Restaurants,Chicken Take Out",Chicago,Restaurants,41.881608,-87.626131,Popeyes Louisiana Kitchen,"Central Chicago, The Loop",60603
616 E 103rd St,"Restaurant,Carry-out food,Chain Restaurant,Barbecued poultry,Take Out Restaurants,Fast Food Restaurants,Chicken Restaurants,Barbecue,Spare rib restaurants,Restaurants",Chicago,"Chain Restaurant,Restaurants",41.70741,-87.60813,Popeyes Louisiana Kitchen,"Far South Chicago, Rosemoor, Roseland",60628
5353 N Harlem Avenue,"Chicken Restaurants,Fast Food Restaurants,Restaurants,Take Out Restaurants",Chicago,"Chicken Restaurants,Fast Food Restaurants,Restaurants,Take Out Restaurants,Chicken,Take Out,Fast Food",41.97865,-87.80667,Popeyes Louisiana Kitchen,"Union Ridge,Northwest Side,Norwood Park",60656
5500 W North Ave,"Take Out,Fried Chicken Joint,Fast Food Restaurant,Take Out Restaurants,Fast Food Restaurants,Chicken Restaurants,Restaurants,Chicken Take Out",Chicago,Chicken Restaurants,41.909644,-87.76332,Popeyes Louisiana Kitchen,"North Austin, Northwest Side, Austin",60639
1 N La Salle St,"Restaurant,Take Out,Deli & Sandwich,Fast Food,Fast Food Restaurants,Restaurants,Sandwich Shops",Chicago,"Fast Food,Deli and Sandwich,Sandwiches/Subs",41.88228,-87.63241,Potbelly Sandwich Works,Chicago,60602
5428 S Lake Park Ave,"Restaurant,American Restaurants,Delicatessens,Deli & Sandwich,American Restaurant,wich Place,Fast Food,Fast Food Restaurants,Restaurants,Sandwich Shops",Chicago,"Fast Food,Deli and Sandwich,Delicatessens",41.79672,-87.58732,Potbelly Sandwich Works,"Far South Chicago, Hyde Park",60615
9501 S Western Ave,"American Restaurants,Restaurant,Delicatessens,Fast Food Restaurants,Sandwich Place Beverly,Sandwich Place,Restaurants,Sandwich Shops",Chicago,Delicatessens,41.72071,-87.681854,Potbelly Sandwich Works,"Far South Chicago, Beverly",60643
520 N Michigan Avenue,"American Restaurants,Delicatessens,Fast Food Restaurants,Restaurants,Sandwich Shops",Chicago,"American Restaurants,Delicatessens,American,Fast Food Restaurants,Fast Food,Sandwiches,Restaurants,Deli,Sandwich Shops",41.89149,-87.62432,Potbelly Sandwich Works,"Near North Side,Streeterville,Central Chicago",60611
225 S Canal Street,"Fast Food Restaurants,Health Food Restaurants,Restaurants,Take Out Restaurants",Chicago,"Fast Food Restaurants,Health Food Restaurants,Restaurants,Take Out Restaurants",41.87901,-87.63946,Pret A Manger,"Central Chicago,West Loop",60606
500 W Madison Street,"Fast Food Restaurants,Restaurants,Sandwich Shops,Seafood Restaurants,Take Out Restaurants",Chicago,"Fast Food Restaurants,Restaurants,Sandwich Shops,Seafood Restaurants,Take Out Restaurants",41.88235,-87.64047,Pret A Manger,"Central Chicago,West Loop",60661
58 E Randolph Street,"Mexican Restaurants,Fast Food Restaurants,Restaurants,Take Out Restaurants",Chicago,"Mexican Restaurants,Fast Food Restaurants,Restaurants,Take Out Restaurants,Mexican,Fast Food,Latin American,Omelets",41.8846,-87.62609,QDOBA Mexican Eats,"Central Chicago,The Loop",60601
5155 N Western Avenue,"Take Out Restaurants,Fast Food Restaurants,Restaurants",Chicago,"Take Out Restaurants,Fast Food Restaurants,Restaurants,Take Out,Fast Food",41.97567,-87.68876,Quick Bite Carry Outs,"North Side,Ravenswood",60625
2056 N Lincoln Park W,"American Restaurants,Caterers,Bar and Grills,American Restaurant,Breakfast Brunch and Lunch Restaurants,,Fast Food Restaurants,Dessert Restaurants,Family Style Restaurants,Hamburgers and Hot Dogs,Restaurants,Italian Restaurants,Sandwich Shops",Chicago,"Caterers,Breakfast,Italian,American,Burgers,Breakfast Brunch and Lunch Restaurants,,Fast Food Restaurants,Fast Food,Vegetarian Friendly,Family Style Restaurants,European,Brunch and Lunch,Dessert,Restaurants,Italian Restaurants,Family Style,American Restaurants,Bar and Grills,Continental,Hot Dogs,Dessert Restaurants,Hamburgers and Hot Dogs,Sandwiches,Sandwich Shops",41.9198,-87.63668,R.J. Grunts,"North Side,Lincoln Park",60614
2653 W Cermak Road,"American Restaurants,Take Out Restaurants,Fast Food Restaurants,Hamburgers and Hot Dogs,Restaurants",Chicago,"American Restaurants,Take Out,American,Burgers,Hot Dogs,Take Out Restaurants,Fast Food Restaurants,Fast Food,Hamburgers and Hot Dogs,Restaurants",41.85167,-87.69261,Raymond's Hamburgers,"West Side,Little Village",60608
1823 W 87th St,"Restaurant,Fast Food Restaurant Gresham,Delicatessens,Fast Food Restaurant,American restaurants,Restaurants",Chicago,"Wings, Sandwiches, Seafood",41.735639,-87.668735,Reese's Fast Food,new-city-chatham,60620
340 W 83rd Street,"Pizza,Fast Food Restaurants,Restaurants,Italian Restaurants",Chicago,"Pizza,Italian,Continental,Fast Food Restaurants,Fast Food,European,Restaurants,Italian Restaurants",41.74395,-87.63362,Reggio's Pizza,"South Side,West Chatham",60620
7601 S Cicero Avenue,"Fast Food Restaurants,Japanese Restaurants,Restaurants",Chicago,"Fast Food Restaurants,Japanese Restaurants,Restaurants,Japanese,Asian,Fast Food",41.74539,-87.71352,Sarku Japan,Ford City,60652
100 W Randolph St,"Pizza,Restaurant,Pizza Restaurants,Take Out,Chain Restaurant,Pasta Restaurants,Fast Food Restaurants,Family Style Restaurants,Pizza Place,Restaurants,Italian Restaurants",Chicago,"Pizza,Chain Restaurant,Italian,Fast Food Restaurants",41.885179,-87.631872,Sbarro,"Central Chicago, The Loop",60601
333 S State St,"Pizza,Restaurant,Chain Restaurant,Fast Food Restaurants,Pizza Place,Family Style Restaurants,Restaurants,Italian Restaurants",Chicago,"Pizza,Chain Restaurant,Italian",41.877291,-87.627759,Sbarro,"Central Chicago, The Loop",60604
500 W Madison St,"Take Out,Pizza Restaurants,Italian Restaurant,Carry-out food,Fast Food Restaurants,Family Style Restaurants,Restaurants,Italian Restaurants,Pizza,Restaurant,Pizza Place and Italian Restaurant,Pasta Restaurants,Pizza Place",Chicago,"Italian,Fast Food Restaurants,Fast Food,Family Style Restaurants,European,Italian Dishes,Restaurants,Italian Restaurants,Pizza,Family Style,Wings,Continental,Soups,Burgers / Hot Dogs",41.88235,-87.64047,Sbarro,"Central Chicago,West Loop",60661
447 E 63rd St,"Restaurant,Seafood,fast food restaurant,Fast Food Restaurant, Seafood Restaurant, and Fried Chicken Joint,Restaurants",Chicago,"Seafood,Chicken,Chicken Restaurants",41.7803,-87.6137,Sharks Fish & Chicken,"West Woodlawn, South Side",60637
35 E 59th St,"Restaurant,American Restaurants,Chicago,Take Out Restaurants,Fast Food Restaurants,Chicken Restaurants,Restaurants",Chicago,"Seafood, Wings, Chicken,Seafood,Chicken,Chicken Restaurants",41.7872,-87.6241,Sharks Fish & Chicken,"south-shore-woodlawn,South Side, Washington Park",60637
338 S California Ave,"Restaurant,American Restaurants,Seafood Restaurant,Fried Chicken Joint,Seafood Markets,Butcher Shops,Fast Food Restaurant,Seafood,Take Out Restaurants,Chicken Restaurants,Seafood Restaurant, Fried Chicken Joint, and Fast Food Restaurant,Restaurants",Chicago,"Seafood,Chicken,Chicken Restaurants",41.8767,-87.6962,Sharks Fish & Chicken,"West Side, Near West Side",60612
101 E 51st St,"Seafood restaurants,Crabs and crab houses,Restaurants,Fast Food Restaurant Washington Park",Chicago,"American Restaurants,Seafood",41.802,-87.6226,Sharks Fish & Chicken Express,"South Side, Grand Boulevard, Bronzeville",60615
834 E 79th St,"Fast Food Restaurant, Fried Chicken Joint, and Seafood Restaurant,Fast Food Restaurant, Fried Chicken Joint, and Seafood Restaurant East Chatham,Seafood Restaurant,Fried Chicken Joint,Fast Food Restaurant,Locksmiths",Chicago,Take Out Restaurants,41.750929,-87.604841,Sharks Fish and Chicken,"East Chatham, South Side, Chatham",60619
19 S La Salle St Ste 106,"Asian Restaurants,Chinese Restaurants,Fast Food Restaurants,Restaurants,Chinese restaurants",Chicago,"Chinese Restaurants,Asian Restaurants,Fast Food Restaurants,Restaurants,Asian,Fast Food,Chinese",41.88142,-87.63227,Silk Road Lasalle,"Central Chicago,The Loop",60603
2020 W Montrose Ave,"Restaurant,Bar,American,Chicago,Fast Food Restaurant,Fast Food Restaurant Ravenswood,Restaurants",Chicago,"American,American Traditional, Hot Dogs",41.961596,-87.679943,Slim's,lincoln-sq-ravenswood,60618
3800 N Pulaski Road,"American Restaurants,Caterers,Breakfast Brunch and Lunch Restaurants,,Fast Food Restaurants,Take Out Restaurants,Barbecue Restaurants,Chicken Restaurants,Family Style Restaurants,Restaurants",Chicago,"Take Out,Caterers,Breakfast,American,Breakfast Brunch and Lunch Restaurants,,Fast Food Restaurants,Take Out Restaurants,Fast Food,Chicken Restaurants,Family Style Restaurants,Brunch and Lunch,Restaurants,Family Style,American Restaurants,Chicken,Barbecue Restaurants,Barbecue",41.95021,-87.72795,Smoque BBQ,"The Villa,Northwest Side,Old Irving Park",60641
240 E 35th St,"Take Out,Delicatessens,Take Out Restaurants,Fast Food Restaurants,Restaurants,Sandwich Shops",Chicago,"Take Out Restaurants,Delicatessens,Fast Food Restaurants,Sandwich Shops,Restaurants,Deli,Sandwiches,Take Out,Fast Food",41.831215,-87.620215,Southtown Sub,"South Side,Douglas,Bronzeville,The Gap",60616
259 E Erie St Suite 100,"Fast Food Restaurants,American Restaurants,Caterers,Donut Shops,Restaurants",Chicago,"Fast Food Restaurants,American Restaurants,Caterers,Donut Shops,Restaurants,Donuts,American,Fast Food",41.89399,-87.62078,Stan's Donuts,"Central Chicago,Near North Side,Streeterville",60611
2200 W Irving Park Road,"Take Out Restaurants,American Restaurants,Fast Food Restaurants,Middle Eastern Restaurants,Restaurants",Chicago,"Take Out Restaurants,American Restaurants,Fast Food Restaurants,Middle Eastern Restaurants,Restaurants,American,Take Out,Fast Food,Middle Eastern",41.95439,-87.68381,Stella's Carry Out,"North Side,North Center",60618
3205 W 63rd Street,"American Restaurants,Fast Food Restaurants,Take Out Restaurants,Restaurants,Sandwich Shops",Chicago,"Fast Food Restaurants,Restaurants,Sandwich Shops,Take Out Restaurants,Sandwiches,Take Out,Fast Food",41.77883,-87.70337,Subway,"Marquette Park,South Side",60629
5973 W Madison St,"Carry-out food,Delicatessens,Fast Food Restaurant,Take Out Restaurants,Fast Food Restaurants,Sandwich Place Austin,Sandwiches,Sandwich Place,Restaurants,Sandwich Shops",Chicago,Sandwich Shops,41.880019,-87.774554,Subway,"Austin, South Austin, Northwest Side",60644
1400 E 53rd St,"Restaurant,Fast Food,Take Out Restaurants,Fast Food Restaurants,Sandwich Place,Restaurants,Sandwich Shops",Chicago,"Fast Food,Fast Food Restaurants",41.79951,-87.59123,Subway,"Far South Chicago, Hyde Park",60615
5706 S University Ave,"Restaurant,Take Out,Delicatessens,Fast Food,Take Out Restaurants,Fast Food Restaurants,Sandwich Place,Restaurants,Sandwich Shops",Chicago,"Fast Food,Take Out Restaurants",41.791259,-87.598254,Subway,"Hyde Park, Far South Chicago",60637
2101 E 71st St,"Restaurant,Take Out,Delicatessens,Fast Food Restaurant,Fast Food,Take Out Restaurants,Fast Food Restaurants,Sandwich Place,Restaurants,Sandwich Shops",Chicago,"Fast Food,Fast Food Restaurants",41.765509,-87.575931,Subway,"South Shore, Far South Chicago",60649
7150 N Harlem Ave,"Delis And Delicatessens,Restaurant,Fast Food Restaurant,Fast Food,Sandwich Place,Restaurants,Sandwich Place Edison Park,Sandwich Shops",Chicago,"Fast Food,Soups",42.0114,-87.807,Subway,Niles,60631
7100 S Western Ave,"Delis And Delicatessens,Restaurant,Carry-out food,Delicatessens,Fast Food,Sandwiches,Sandwich Place,Restaurants,Sandwich Place Marquette Park,Sandwich Shops",Chicago,"Fast Food,Soups",41.7647,-87.6833,Subway,"Chicago Lawn Marquette Park, Chicago Lawn, Southwest Side",60636
1936 E 95th St,"Delis And Delicatessens,Take Out Restaurants,Fast Food Restaurants,Sandwich Place,Restaurants,Sandwich Shops",Chicago,"Soups,Sandwich Shops",41.7225,-87.5767,Subway,"Far South Chicago, Calumet Heights",60617
5040 S Cottage Grove Ave,"Delis And Delicatessens,Restaurant,wich Place,Fast Food,Take Out Restaurants,Fast Food Restaurants,Sandwich Place Grand Boulevard,Sandwich Place,Restaurants,Sandwich Shops",Chicago,"Fast Food,Take Out Restaurants,Soups",41.8027,-87.6064,Subway,"South Side, Grand Boulevard, Bronzeville",60615
7358 S Stony Island Ave,"Delis And Delicatessens,Restaurant,Take Out,Delicatessens,Fast Food,Fast Food Restaurants,Take Out Restaurants,Sandwich Place,Restaurants,Sandwich Shops",Chicago,"Fast Food,Soups,Take Out Restaurants",41.7608,-87.5862,Subway,"Far South Chicago, Grand Crossing",60649
62 E Jackson Boulevard,"Fast Food Restaurants,Restaurants,Sandwich Shops,Take Out Restaurants",Chicago,"Fast Food Restaurants,Restaurants,Sandwich Shops,Take Out Restaurants,Sandwiches,Take Out,Fast Food",41.87833,-87.62564,Subway,"Central Chicago,The Loop",60604
4435 W Grand Avenue,"Fast Food Restaurants,Restaurants,Sandwich Shops,Take Out Restaurants",Chicago,"Fast Food Restaurants,Restaurants,Sandwich Shops,Take Out Restaurants,Sandwiches,Take Out,Fast Food",41.91039,-87.7377,Subway,"Northwest Side,Hermosa",60639
951 W Addison Street,"Fast Food Restaurants,Restaurants,Sandwich Shops,Take Out Restaurants",Chicago,"Fast Food Restaurants,Restaurants,Sandwich Shops,Take Out Restaurants,Sandwiches,Take Out,Fast Food",41.94719,-87.65363,Subway,"Wrigleyville,North Side,Lakeview",60613
3538 E 118th Street,"Fast Food Restaurants,Restaurants,Sandwich Shops,Take Out Restaurants",Chicago,"Fast Food Restaurants,Restaurants,Sandwich Shops,Take Out Restaurants,Sandwiches,Take Out,Fast Food",41.68098,-87.53732,Subway,"Hegewisch,Far South Chicago",60617
753 W 31st Street,"Fast Food Restaurants,Restaurants,Sandwich Shops,Take Out Restaurants",Chicago,"Fast Food Restaurants,Restaurants,Sandwich Shops,Take Out Restaurants,Sandwiches,Take Out,Fast Food",41.83801,-87.64546,Subway,"Bridgeport,Southwest Side",60616
187 N Neltnor Blvd,"Sandwiches/subs,Take Out Restaurants,Fast Food Restaurants,Carry Out,Restaurants,Mastercard Accepted,Visa Accepted,Delis And Delicatessens,Cheap Eats,wich Place,Soups,Food & Entertainment,Sandwich Place,Sandwich Shops",West Chicago,"Pizza,Soups,Sandwich Shops",41.8851,-88.1945,Subway,West Chicago,60185
6044 S Western Ave,"Carry-out food,Delicatessens,American Restaurant,American restaurants,Fast Food,Fast Food Restaurants,Take Out Restaurants,Carry Out,Restaurants,Delis And Delicatessens,Restaurant,wich Place,Soups,Sandwiches,Sandwich Shops",Chicago,"Fast Food,Fast Food Restaurants,Soups",41.7834,-87.684,Subway,"South Side, West Englewood",60636
9100 S Commercial Ave,"Fast Food Restaurant,Fast Food Restaurants,Take Out Restaurants,Sandwich Place,Restaurants,Sandwich Shops",Chicago,Take Out Restaurants,41.729881,-87.551875,Subway,"Far South Chicago, South Chicago",60617
3620 W Irving Park Rd,"Restaurant,Fast Food Restaurant,Chicago Restaurants,Sandwich Place",Chicago,,41.953752,-87.718849,Subway,"Irving Park, Northwest Side",60618
6072 N Northwest HWay,"Fast Food Restaurants,Restaurants,Sandwich Shops,Take Out Restaurants",Chicago,"Fast Food Restaurants,Restaurants,Sandwich Shops,Take Out Restaurants,Sandwiches,Take Out,Fast Food",41.9916,-87.79794,Subway,"Norwood Park,Northwest Side,Norwood Park East,Old Norwood Park",60631
5316 N Milwaukee Ave Ste 2c,"Fast Food Restaurants,Restaurants,Sandwich Shops,Take Out Restaurants",Chicago,"Fast Food Restaurants,Restaurants,Sandwich Shops,Take Out Restaurants,Sandwiches,Take Out,Fast Food",41.97685,-87.76972,Subway,"Northwest Side,Jefferson Park,Gladstone Park",60630
5409 S Harlem Avenue,"Fast Food Restaurants,Restaurants,Sandwich Shops,Take Out Restaurants",Chicago,"Fast Food Restaurants,Restaurants,Sandwich Shops,Take Out Restaurants,Sandwiches,Take Out,Fast Food",41.79367,-87.80143,Subway,"Garfield Ridge,Southwest Side",60638
6456 W 63rd Street,"Fast Food Restaurants,Restaurants,Sandwich Shops,Take Out Restaurants",Chicago,"Fast Food Restaurants,Restaurants,Sandwich Shops,Take Out Restaurants,Sandwiches,Take Out,Fast Food",41.77771,-87.78362,Subway,"Clearing,Southwest Side",60638
5853 S Kedzie Avenue,"Fast Food Restaurants,Restaurants,Sandwich Shops,Take Out Restaurants",Chicago,"Fast Food Restaurants,Restaurants,Sandwich Shops,Take Out Restaurants,Sandwiches,Take Out,Fast Food",41.78698,-87.70329,Subway,"Southwest Side,Gage Park",60629
6450 S Pulaski Road,"Fast Food Restaurants,Restaurants,Sandwich Shops,Take Out Restaurants",Chicago,"Fast Food Restaurants,Restaurants,Sandwich Shops,Take Out Restaurants,Sandwiches,Take Out,Fast Food",41.7753,-87.72304,Subway,"West Lawn,Southwest Side",60629
2559 W Devon Avenue,"Indian Restaurants,Asian Restaurants,Caterers,Fast Food Restaurants,Middle Eastern Restaurants,Restaurants",Chicago,"Indian Restaurants,Asian Restaurants,Caterers,Fast Food Restaurants,Middle Eastern Restaurants,Restaurants,Asian,Indian,Fast Food,Middle Eastern",41.99739,-87.6945,Sukhadia Sweets Snacks,"West Ridge,North Side",60659
8106 S Racine Avenue,"Greek Restaurants,Delicatessens,Fast Food Restaurants,Mediterranean Restaurants,Restaurants,Sandwich Shops",Chicago,"Greek Restaurants,Delicatessens,Fast Food Restaurants,Mediterranean Restaurants,Restaurants,Sandwich Shops,Deli,Mediterranean,Greek,Sandwiches,Fast Food,European,Continental",41.74662,-87.65396,Sunrise Gyros,"South Side,Gresham",60620
2810 W Marquette Rd,"Delis And Delicatessens,Burger Joint,Delicatessens,Mediterranean Restaurants,American Restaurant Marquette Park,American Restaurant,Fast Food Restaurants,Sandwich Place,Restaurants,Sandwich Shops",Chicago,"Mediterranean,Delicatessens,Mediterranean Restaurants,Fast Food Restaurants,Fast Food,Sandwiches,Greek,Restaurants,Deli,Sandwich Shops",41.771916,-87.693686,Super Sub Gyro,"Marquette Park,South Side,Marquette Park, South Side",60629
6363 N Milwaukee Avenue,"Caterers,Burgers,Fast Food Restaurants,Take Out Restaurants,Breakfast Brunch and Lunch Restaurants,,Family Style Restaurants,Restaurants,Meat,American Restaurants,Hot Dog Stands and Restaurants,Hotels and Lodging,Hot Dogs,Hamburgers and Hot Dogs",Chicago,"Take Out,Caterers,Breakfast,American,Burgers,Fast Food Restaurants,Take Out Restaurants,Breakfast Brunch and Lunch Restaurants,,Fast Food,Family Style Restaurants,Brunch and Lunch,Restaurants,Meat,Family Style,American Restaurants,Hot Dog Stands and Restaurants,Hot Dogs,Hamburgers and Hot Dogs",41.99681,-87.78718,Superdawg Drive-In,"Northwest Side,Norwood Park,Norwood Park East",60646
4126 W Montrose Avenue,"Coffee Shops,American Restaurants,Delicatessens,Fast Food Restaurants,Restaurants",Chicago,"Coffee Shops,American Restaurants,Delicatessens,Fast Food Restaurants,Restaurants,Deli,American,Fast Food,Cafeterias",41.96101,-87.73107,Susie's Drive In,"Mayfair,Northwest Side",60641
1339 W Taylor Street,"American Restaurants,Caterers,American,Restaurant Delivery Service,Breakfast Brunch and Lunch Restaurants,,Fast Food Restaurants,Take Out Restaurants,Family Style Restaurants,Restaurants",Chicago,"Take Out,Caterers,Breakfast,American,Restaurant Delivery Service,Breakfast Brunch and Lunch Restaurants,,Fast Food Restaurants,Take Out Restaurants,Fast Food,Family Style Restaurants,Brunch and Lunch,Restaurants,Family Style,American Restaurants,Delivery",41.86912,-87.66067,Sweet Maple Cafe,"West Side,University Village Little Italy",60607
1644 W 95th St,"Mexican Restaurant,Carry-out food,Restaurant,Mexican,Breakfast,Mexican Restaurants,Tex-mex restaurants,Vegetarian,Southwestern restaurants,Fast Food Restaurant,Fast Food,Restaurants",Chicago,"Mexican,Fast Food,Fast Food Restaurants",41.7215,-87.6645,Taco Bell,"Far South Chicago, Beverly",60643
3511 W Devon Ave,"Take Out,Carry-out food,Mexican Restaurants,Tex-mex restaurants,Southwestern restaurants,Mexican restaurants,Fast Food Restaurants,Karaoke,Restaurants,Mexican Restaurant,Fast Food Restaurant and Mexican Restaurant,Restaurant,Fast Food Restaurant,Family Restaurants",Chicago,Mexican Restaurants,41.997148,-87.716485,Taco Bell,"Pulaski Park, Northwest Side, North Park",60659
5130 S Lake Park Ave,"Carry-out food,Mexican Restaurants,Steak and chop restaurants,Tex-mex restaurants,Southwestern restaurants,American restaurants,Mexican restaurants,Fast Food Restaurants,Restaurants,Family style restaurants,Barbecue,Spare rib restaurants,Sandwiches",Chicago,Mexican Restaurants,41.801624,-87.58762,Taco Time,"Far South Chicago, Hyde Park",60615
1512 W Taylor Street,"Indian Restaurants,Asian Restaurants,Caterers,Fast Food Restaurants,Middle Eastern Restaurants,Restaurants",Chicago,"Indian Restaurants,Asian Restaurants,Caterers,Fast Food Restaurants,Middle Eastern Restaurants,Restaurants,Asian,Indian,Fast Food,Middle Eastern",41.86951,-87.6647,Taj Mahal Fast Foods,"West Side,University Village Little Italy",60607
3253 S Halsted Street,"Mexican Restaurants,Caterers,Fast Food Restaurants,Spanish Restaurants,Take Out Restaurants,Latin American Restaurants,Restaurants",Chicago,"Take Out,Mexican Restaurants,Caterers,Mexican,Fast Food Restaurants,Spanish Restaurants,Take Out Restaurants,Latin American Restaurants,Fast Food,European,Restaurants,Latin American,Continental,Spanish",41.83491,-87.64584,Taqueria San Jose 1 Inc,"Bridgeport,Southwest Side",60608
438 W Diversey Parkway,"Fast Food Restaurants,American Restaurants,Caterers,Restaurants,Take Out Restaurants",Chicago,"Fast Food Restaurants,American Restaurants,Caterers,Restaurants,Take Out Restaurants,American,Take Out,Fast Food",41.93292,-87.64089,The Chipmunks,"Lake View East,Lakeview,Park West,North Side,Lincoln Park",60614
2622 N Clark Street,"American Restaurants,Fast Food Restaurants,Take Out Restaurants,Hamburgers and Hot Dogs,Restaurants",Chicago,"American Restaurants,Take Out,American,Burgers,Hot Dogs,Fast Food Restaurants,Take Out Restaurants,Fast Food,Hamburgers and Hot Dogs,Restaurants",41.93014,-87.64394,The Wiener's Circle,"North Side,Park West,Lincoln Park",60614
101 E 47th Street,"Asian Restaurants,American Restaurants,Mediterranean Restaurants,Take Out Restaurants,Fast Food Restaurants,Restaurants,Italian Restaurants",Chicago,"Take Out Restaurants,Fast Food Restaurants,Italian Restaurants,Mediterranean Restaurants,Restaurants,Mediterranean,Take Out,Fast Food,Italian,European,Continental",41.8092,-87.62284,Tony's Carryouts,"South Side,Grand Boulevard,Bronzeville",60653
7007 S Pulaski Road,"American Restaurants,Caterers,Italian Grocery Stores,Steak Houses,Fast Food Restaurants,Breakfast Brunch and Lunch Restaurants,,Hamburgers and Hot Dogs,Restaurants,Italian Restaurants,Sandwich Shops",Chicago,"Caterers,Italian Grocery Stores,Breakfast,Italian,American,Burgers,Fast Food Restaurants,Breakfast Brunch and Lunch Restaurants,,Fast Food,Brunch and Lunch,European,Restaurants,Italian Restaurants,American Restaurants,Steak Houses,Continental,Hot Dogs,Steakhouse,Hamburgers and Hot Dogs,Sandwiches,Sandwich Shops",41.76561,-87.72206,Tony's Italian Beef,"West Lawn,Southwest Side",60629
177 N State St,"Chinese Restaurant,Fast Food Restaurant, American Restaurant, and Sandwich Place,Fast Food Restaurant, American Restaurant, and Sandwich Place The Loop,Chinese Restaurant The Loop",Chicago,Restaurants,41.885425,-87.627963,Triple 1 Chinese Restaurant,"Central Chicago, The Loop",60601
185 N Franklin Street,"American Restaurants,Hot Dog Stands and Restaurants,Fast Food Restaurants,Hamburgers and Hot Dogs,Restaurants",Chicago,"American Restaurants,Hot Dog Stands and Restaurants,Fast Food Restaurants,Hamburgers and Hot Dogs,Restaurants",41.88541,-87.63533,U.B. Dogs,"Central Chicago,The Loop",60606
4626 N Cumberland Ave,"Asian Restaurants,Restaurant,Japanese Restaurants,Sushi Restaurant,Fast Food,Sushi Bars,Sushi,Restaurants",Chicago,"Sushi Bars,Japanese Restaurants,Asian Restaurants,Restaurants,Japanese,Asian,Sushi,Fast Food",41.96391,-87.836967,Umami Sushi,Schorsch Forest View,60656
8251 S Cottage Grove Avenue,"Barbecue Restaurants,American Restaurants,Fast Food Restaurants,Restaurants",Chicago,"Barbecue Restaurants,American Restaurants,Fast Food Restaurants,Restaurants,Barbecue,American,Fast Food",41.74413,-87.60462,Uncle John's,"South Side,Chatham,East Chatham",60619
3943 N Harlem Ave,"Burger Joint,Restaurant,Fast Food Restaurant,Fast Food Restaurants,Hamburgers and Hot Dogs,Restaurants",Chicago,"Restaurants,Fast Food Restaurants,Hamburgers and Hot Dogs,Burgers,American,Hot Dogs,Fast Food",41.95202,-87.80688,Wendy's,"Northwest Side,Dunning",60634
3516 E 118th Street,"Fast Food Restaurants,Hamburgers and Hot Dogs,Restaurants",Chicago,"Fast Food Restaurants,Hamburgers and Hot Dogs,Restaurants,Fast Food",41.68099,-87.53781,Wendy's,"Hegewisch,Far South Chicago",60617
8645 S Stony Island Avenue,"Fast Food Restaurants,Hamburgers and Hot Dogs,Restaurants",Chicago,"Fast Food Restaurants,Hamburgers and Hot Dogs,Restaurants,Fast Food",41.73744,-87.58513,Wendy's,"Far South Chicago,Stony Island Park",60617
758 W 117th Street,"Fast Food Restaurants,Hamburgers and Hot Dogs,Restaurants",Chicago,"Fast Food Restaurants,Hamburgers and Hot Dogs,Restaurants,Fast Food",41.68245,-87.64164,Wendy's,"West Pullman,Far South Chicago",60628
7 E 111th Street,"Fast Food Restaurants,Hamburgers and Hot Dogs,Restaurants",Chicago,"Fast Food Restaurants,Hamburgers and Hot Dogs,Restaurants,Fast Food",41.69253,-87.62268,Wendy's,"Far South Chicago,Roseland",60628
4901 W North Ave,"Burger Joint,Restaurant,Fast Food Restaurant",Chicago,Fast Food Restaurants,41.909245,-87.748784,Wendys,"Austin, North Austin, Northwest Side",60639
758 W 117th St,"Burger Joint,Restaurant,Carry-out food,Hot dog restaurants,Fast Food Restaurant,Hamburger restaurants,Restaurants",Chicago,,41.682163,-87.641657,Wendys,"West Pullman, Far South Chicago",60628
242 W Garfield Blvd,"Burger Joint,Restaurant,Carry-out food,Hot dog restaurants,Fast Food Restaurant,Hamburger restaurants,Fast Food,Fast Food Restaurants,Hamburgers and Hot Dogs,Restaurants",Chicago,"Fast Food,Fast Food Restaurants,Restaurants,Hamburgers and Hot Dogs,Burgers,American,Hot Dogs",41.794889,-87.632609,Wendys,"Back of the Yards,Fuller Park,Southwest Side,Back Of The Yards",60609
754 S Western Ave,"Middle Eastern Restaurant,Greek Restaurants,Turkish restaurants,Mediterranean Restaurants,Fast Food Restaurants,Armenian restaurants,Greek restaurants,Restaurants",Chicago,"Greek Restaurants,Mediterranean Restaurants,Fast Food Restaurants,Restaurants,Mediterranean,Greek,Fast Food,European,Continental",41.871321,-87.686277,Westside Gyros,"West Side,Lawndale",60612
2140 S Wabash Ave,"Restaurant,Burger Joint,Fast Food Restaurant,Fast Food,Restaurants",Chicago,Fast Food,41.853131,-87.626099,White Castle,"Central Chicago, South Loop",60616
3212 W Addison St,"Burger Joint,Restaurant,Fast Food Restaurant",Chicago,"Fast Food,American,Fast Food Restaurants",41.946866,-87.708443,White Castle,"Northwest Side, Avondale",60618
6646 S Halsted St,"Take Out,Carry-out food,Hot dog restaurants,Fast Food Restaurant Englewood,Hamburger restaurants,Fast Food,Fast Food Restaurants,Burger Restaurants,Restaurants,Hamburgers & Hot Dogs,Restaurant,American Restaurants,Fast Food Restaurant",Chicago,"Fast Food,Fast Food Restaurants,Hamburgers",41.7729,-87.645,White Castle,"South Side, Englewood",60621
5618 W North Ave,"Restaurant,Take Out,Fast Food Restaurant,Fast Food Restaurants,Burger Restaurants,Restaurants",Chicago,"Fast Food Restaurants,Fast Food,Hamburgers",41.9097,-87.7664,White Castle,"North Austin, Northwest Side, Austin",60639
11050 S Halsted St,"Hamburgers & Hot Dogs,American Restaurants,Fast Food Restaurant Morgan Park,Fast Food Restaurant,Fast Food Restaurants,Restaurants",Chicago,"Fast Food Restaurants,Fast Food,Hamburgers",41.693,-87.6425,White Castle,"Far South Chicago, Morgan Park",60628
10301 S Michigan Ave,"Hamburgers & Hot Dogs,American Restaurants,Take Out,Carry-out food,Hot dog restaurants,Fast Food Restaurant,Fast Food Restaurant Rosemoor,Hamburger restaurants,Fast Food Restaurants,Burger Restaurants,Restaurants",Chicago,"American Restaurants,Fast Food,Hamburgers",41.7072,-87.6202,White Castle,"Far South Chicago, Rosemoor, Roseland",60628
1550 E 79th St,"Restaurant,Fast Food Restaurant,Restaurants",Chicago,"Fast Food,Hamburgers,Restaurants",41.7515,-87.587,White Castle,"Grand Crossing, Far South Chicago",60619
6901 S Western Ave,"Burger Joint,Restaurant,American,Fast Food Restaurant,Burgers,Fast Food,Restaurants",Chicago,"American,Burgers,Fast Food,Fast Food Restaurants,Hamburgers",41.7681,-87.6826,White Castle,"West Englewood, South Side",60636
3457 S King Dr,"Hamburgers & Hot Dogs,Burger Joint,American Restaurants,Restaurant,Burger Joint and Fast Food Restaurant Lake Meadows,Fast Food Restaurant,Fast Food Restaurants,Restaurants,Burger Joint and Fast Food Restaurant",Chicago,"Fast Food Restaurants,Fast Food,Hamburgers",41.8318,-87.617,White Castle,"South Side, Bronzeville, The Gap",60616
3901 W Madison St,"Fast Food Restaurant East Garfield Park,Fast Food,Fast Food Restaurants,Carry Out,Family-Friendly Dining,Restaurants,Mastercard Accepted,Visa Accepted,Hamburgers & Hot Dogs,Restaurant,American Restaurants,Fast Food Restaurant,Cheap Eats,Hamburgers",Chicago,"Fast Food,Hamburgers,Fast Food Restaurants",41.8805,-87.7234,White Castle,"West Side, West Garfield Park,West Side, East Garfield Park",60624
7550 N Harlem Avenue,"Fast Food Restaurants,American Restaurants,Hamburgers and Hot Dogs,Restaurants",Chicago,"Fast Food Restaurants,American Restaurants,Hamburgers and Hot Dogs,Restaurants,Burgers,American,Hot Dogs,Fast Food",42.01795,-87.80672,White Castle,"Northwest Side,Edison Park",60631
4750 W 63rd Street,"Fast Food Restaurants,American Restaurants,Hamburgers and Hot Dogs,Restaurants",Chicago,"Fast Food Restaurants,American Restaurants,Hamburgers and Hot Dogs,Restaurants,Burgers,American,Hot Dogs,Fast Food",41.77856,-87.74185,White Castle,"Southwest Side,West Lawn",60629
6901 S Western Avenue,"Fast Food Restaurants,American Restaurants,Hamburgers and Hot Dogs,Restaurants",Chicago,"Fast Food Restaurants,American Restaurants,Hamburgers and Hot Dogs,Restaurants,Burgers,American,Hot Dogs,Fast Food",41.76809,-87.68263,White Castle,"West Englewood,South Side",60636
7912 S Pulaski Road,"Fast Food Restaurants,American Restaurants,Hamburgers and Hot Dogs,Restaurants",Chicago,"Fast Food Restaurants,American Restaurants,Hamburgers and Hot Dogs,Restaurants,Burgers,American,Hot Dogs,Fast Food",41.74895,-87.7221,White Castle,Scottsdale,60652
3326 N Western Avenue,"Chicken Restaurants,Caterers,Fast Food Restaurants,Restaurants,Take Out Restaurants",Chicago,"Chicken Restaurants,Caterers,Fast Food Restaurants,Restaurants,Take Out Restaurants,Chicken,Take Out,Fast Food",41.94198,-87.6883,Wingstop Restaurant,"North Side,Roscoe Village",60618
1521 E 87th Street,"Chicken Restaurants,Fast Food Restaurants,Restaurants,Take Out Restaurants",Chicago,"Chicken Restaurants,Fast Food Restaurants,Restaurants,Take Out Restaurants",41.73683,-87.5871,Wingstop Restaurant,"Calumet Heights,Far South Chicago",60619
9106 S Stony Island Ave,"Restaurant,Caterers,Wings Joint,Fast Food Restaurant,Barbecue Restaurants,Restaurants,Wings Joint and Fast Food Restaurant",Chicago,"Barbecue Restaurants,Caterers,Restaurants,Barbecue",41.729067,-87.58557,Wingz It Iz,"Far South Chicago,Calumet Heights,Far South Chicago, Calumet Heights",60617
5925 S Pulaski Road,"Mexican Restaurants,Fast Food Restaurants,Latin American Restaurants,Restaurant Delivery Service,Restaurants,Spanish Restaurants,Take Out Restaurants",Chicago,"Mexican Restaurants,Fast Food Restaurants,Latin American Restaurants,Restaurant Delivery Service,Restaurants,Spanish Restaurants,Take Out Restaurants,Spanish,Delivery,Mexican,Take Out,Fast Food,Latin American,European,Continental",41.78515,-87.72257,Zaca Tacos,"Southwest Side,West Lawn",60629